[{"name":"LE TEMPS D'M","city":"THONON-LES-BAINS","zip":"74200"},{"name":"Brasserie La Choulette","city":"HORDAIN","zip":"59111"},{"name":"SCEV LEQUART ET FILS  CHAMPAGNE LAURENT LEQUART","city":"PASSY-GRIGNY","zip":"51700"},{"name":"Domaine de la Jobeline","city":"VERZ�","zip":"71960"},{"name":"LES PYRENEES","city":"TARDETS-SORHOLUS","zip":"64470"},{"name":"CESAR ETOILE","city":"PARIS","zip":"75008"},{"name":"LE BOUCHE � OREILLE","city":"RAON-L'�TAPE","zip":"88110"},{"name":"LE GRAND LARGUE","city":"ARZON","zip":"56640"},{"name":"LA COURTINE","city":"COGNAC","zip":"16100"},{"name":"L'EVEIL DES SENS","city":"TRELINS","zip":"42130"},{"name":"HOTEL LE WARWICK","city":"PARIS","zip":"75008"},{"name":"LA LOZERETTE","city":"FLORAC","zip":"48400"},{"name":"LES JARDINS DU LEMAN","city":"YVOIRE","zip":"74140"},{"name":"L'OREE DES CHENES","city":"LA FERT�-SAINT-AUBIN","zip":"45240"},{"name":"LA TABLE DE FANETTE","city":"FOX-AMPHOUX","zip":"83670"},{"name":"LE ZGORTHIOTE","city":"LE HAVRE","zip":"76600"},{"name":"LE PETIT NI�OIS BIO","city":"CAGNES-SUR-MER","zip":"06800"},{"name":"","city":"","zip":""},{"name":"RESTAURANT LES DEUX RIVES","city":"BANASSAC-CANILHAC","zip":"48500"},{"name":"L'AMBROSIA","city":"PEZENS","zip":"11170"},{"name":"L'AUBERGE BRETONNE","city":"CH�TEAUBRIANT","zip":"44110"},{"name":"L'AUBERGE DU LAC","city":"SAINT-MARCEL-L�S-ANNONAY","zip":"07100"},{"name":"LE BISTROT DU PORT","city":"GOLF JUAN","zip":"06220"},{"name":"LE CAUVET","city":"COGOLIN","zip":"83310"},{"name":"O GRAIN DE SEL","city":"SAINT-GEORGES-DE-DIDONNE","zip":"17110"},{"name":"RESTAURANT LES CHARMILLES","city":"LUX","zip":"71100"},{"name":"LE VALENTINO","city":"TROYES","zip":"10000"},{"name":"TOUT VA BIEN \"CHEZ PARENTI\"","city":"PROPRIANO","zip":"20110"},{"name":"LA CARAVELLE","city":"BANDOL","zip":"83150"},{"name":"LE COHE","city":"PESSAC","zip":"33600"},{"name":"CHEZ NOUS","city":"ST GILLES-LES-BAINS","zip":"97434"},{"name":"LE PONT SAINT ETIENNE","city":"LIMOGES","zip":"87000"},{"name":"L'AUBERGE DU CEDRE","city":"LAURET","zip":"34270"},{"name":"CKS LOUNGE","city":"LYON","zip":"69002"},{"name":"LA TABLE GOURMANDE","city":"CLAIX","zip":"38640"},{"name":"LA CHAUMIERE","city":"POISSY","zip":"78300"},{"name":"CAZES ARAZAT","city":"LAISSAC","zip":"12310"},{"name":"LES CAUDALIES","city":"SAINT-HERBLAIN","zip":"44800"},{"name":"LE COQUELICOT","city":"BURNHAUPT-LE-HAUT","zip":"68520"},{"name":"RESTAURANT ARCHAMBEAU","city":"THONAC","zip":"24290"},{"name":"RESTAURANT XOKO GOXOA","city":"SAINT-MICHEL","zip":"64220"},{"name":"VILLA MIRASOL","city":"MONT-DE-MARSAN","zip":"40000"},{"name":"LA CHASSAGNETTE","city":"ARLES","zip":"13200"},{"name":"LA MAISON DES HALLES","city":"TOURS","zip":"37000"},{"name":"LE SAINT HONORE","city":"V�RETZ","zip":"37270"},{"name":"LES ENFANTS TERRIBLES","city":"LAROQUE-DES-ALB�RES","zip":"66740"},{"name":"BRASSERIE DES ARTS ET METIERS","city":"METZ","zip":"57000"},{"name":"LE BISTROT GOURMAND","city":"CANNES","zip":"06400"},{"name":"LE GRAND SAINT BENOIT","city":"SAINT-BENO�T-SUR-LOIRE","zip":"45730"},{"name":"LES HALLES","city":"CAP AGDE","zip":"34300"},{"name":"O'JASMIN","city":"SAINT-G�LY-DU-FESC","zip":"34980"},{"name":"LE PORC SAINT-LEU","city":"AMIENS","zip":"80000"},{"name":"LE RELAIS","city":"HAUTERIVES","zip":"26390"},{"name":"L'HUITRIER PIE","city":"SAINT-�MILION","zip":"33330"},{"name":"distillerie artisanale la salettina","city":"CORPS","zip":"38970"},{"name":"RESTAURANT CYRIL ATTRAZIC","city":"PEYRE EN AUBRAC","zip":"48130"},{"name":"LE LION D'ARGENT","city":"LACS/LA CH�TRE","zip":"36400"},{"name":"LE CHAI","city":"COGNAC","zip":"16100"},{"name":"LES TERRASSES DE L'ERDRE","city":"NANTES","zip":"44300"},{"name":"LE PATIO","city":"AMBOISE","zip":"37400"},{"name":"REST'AUTHENTIQUE","city":"QUINCAMPOIX","zip":"76230"},{"name":"AU CAPRICE DES DEUX","city":"SAINT-TROPEZ","zip":"83990"},{"name":"LA VIGNERAIE","city":"REIMS","zip":"51100"},{"name":"avenue 294","city":"BRUNSTATT","zip":"68350"},{"name":"Clos Fleuri","city":"CASTELNAUDARY","zip":"11400"},{"name":"CH�TEAU DE GERMIGNEY","city":"PORT-LESNEY","zip":"39600"},{"name":"EARL DU PEIRIGAS","city":"VALROS","zip":"34290"},{"name":"LA BONNE AUBERGE","city":"LES MOUTIERS EN RETZ","zip":"44760"},{"name":"LA BARATTE","city":"TOURCOING","zip":"59200"},{"name":"MAS DE CURE BOURSE","city":"L'ISLE-SUR-LA-SORGUE","zip":"84800"},{"name":"LE BOEUF D'ARGENT","city":"LYON","zip":"69005"},{"name":"LE BISTROQUET","city":"CH�TILLON-EN-DIOIS","zip":"26410"},{"name":"AUBERGE DE LA FERME GUICHARD","city":"CORMARANCHE-EN-BUGEY","zip":"01110"},{"name":"LE PETIT BISTROT","city":"CHARTRES","zip":"28000"},{"name":"LE SAFARI","city":"NICE","zip":"06300"},{"name":"DU JARDIN A L'ASSIETTE","city":"MAUVES","zip":"07300"},{"name":"AMARYS  INTER HOTEL","city":"BIARRITZ","zip":"64200"},{"name":"RESTAURANT DE LA PLACE","city":"SAINT-JULIEN-EN-GENEVOIS","zip":"74160"},{"name":"LES JARDINS DE ST LAURENT","city":"SAINT-LAURENT-BLANGY","zip":"62223"},{"name":"LE GRAIN DE SEL","city":"LONS-LE-SAUNIER","zip":"39000"},{"name":"LA REMISE","city":"VAUJANY","zip":"38114"},{"name":"AUBERGE DU CHEVAL BLANC","city":"LEMBACH","zip":"67510"},{"name":"LES COQUELICOTS","city":"MOYRAZ�S","zip":"12160"},{"name":"LE BOWLING DU ROUERGUE","city":"ONET-LE-CH�TEAU","zip":"12850"},{"name":"Gaec de la source ","city":"BAGNEUX","zip":"54170"},{"name":"LA PORTE BELLON","city":"SENLIS","zip":"60300"},{"name":"CH�TEAU DE SULLY","city":"SULLY","zip":"14400"},{"name":"LA CASCADE","city":"CLISSON","zip":"44190"},{"name":"LA QUINTESSENCE","city":"LYON","zip":"69001"},{"name":"LE PAMPRE","city":"METZ","zip":"57000"},{"name":"LE SOLEIL D'OR","city":"MONTIGNY-LA-RESLE","zip":"89230"},{"name":"LA CHARRUE D'OR","city":"SARREGUEMINES","zip":"57200"},{"name":"CRYSTAL","city":"ERSTEIN","zip":"67150"},{"name":"LA M�TAIRIE","city":"LA PLAGNE TARENTAISE","zip":"73210"},{"name":"L'XTREME COMPTOIR","city":"SAINT-JEAN-DE-BOURNAY","zip":"38440"},{"name":"LES FOUS DE L'ILE","city":"PARIS","zip":"75004"},{"name":"LE COLVERT BISTROT","city":"PARIS","zip":"75006"},{"name":"LE CHRISTINE","city":"PARIS","zip":"75006"},{"name":"ROTISSERIE VAUBAN","city":"BESAN�ON","zip":"25000"},{"name":"Le Cabinet Vert","city":"ORL�ANS","zip":"45000"},{"name":"LES ARCHIVES","city":"POITIERS","zip":"86000"},{"name":"LA GRAVELETTE","city":"JOBOURG","zip":"50440"},{"name":"RESTAURANT LA CR�PERIE","city":"THIONVILLE","zip":"57100"},{"name":"LE CLOS SAINT ELOI","city":"THIERS","zip":"63300"},{"name":"AU JARDIN L'EDEN","city":"�VIAN-LES-BAINS","zip":"74500"},{"name":"sarl ab pecheries de loire","city":"CARQUEFOU","zip":"44470"},{"name":"COTE SAVEURS","city":"LA TOUR-DU-PIN","zip":"38110"},{"name":"L'EMBRUN","city":"LANNEMEZAN","zip":"65300"},{"name":"SUNSET BEACH","city":"BENERVILLE-SUR-MER","zip":"14910"},{"name":"LE DAUPHIN","city":"S�ES","zip":"61500"},{"name":"AUBERGE DES GLAZICKS","city":"PLOMODIERN","zip":"29550"},{"name":"Earl Bellivier","city":"HUISMES","zip":"37420"},{"name":"LES PEUPLIERS","city":"BARATIER","zip":"05200"},{"name":"LA CAUSERIE","city":"GU�RANDE","zip":"44350"},{"name":"CHEZ BEBELLE","city":"NARBONNE","zip":"11100"},{"name":"L'EUROPE","city":"SAINT-FLORENT","zip":"20217"},{"name":"MA TABLE EN VILLE","city":"M�CON","zip":"71000"},{"name":"earl berger claude ","city":"MITTELWIHR","zip":"68630"},{"name":"LE COQ DE LA Place","city":"RODEZ","zip":"12000"},{"name":"L'ENTREE JARDIN","city":"CADILLAC","zip":"33410"},{"name":"RESTAURANT EBULLI'SENS","city":"RENNES","zip":"35000"},{"name":"BISTROT BRICK HOUSE","city":"CHAMB�RY","zip":"73000"},{"name":"RESTAURANT BIRDY","city":"AIX-EN-PROVENCE","zip":"13591"},{"name":"LE QUATRIEME MUR","city":"BORDEAUX","zip":"33000"},{"name":"champagne ernest remy","city":"MAILLY-CHAMPAGNE","zip":"51500"},{"name":"BLEND BISTRO PUB","city":"ORL�ANS","zip":"45000"},{"name":"LA P�CHERIE","city":"COURSEULLES-SUR-MER","zip":"14470"},{"name":"TERROIR DIVIN","city":"NICE","zip":"06200"},{"name":"LE TUMULUS","city":"CARNAC","zip":"56340"},{"name":"LE BINJAMIN","city":"DISSAY","zip":"86130"},{"name":"LA TABLE D'�MERAUDE","city":"PARIS","zip":"75017"},{"name":"LE CESAR","city":"PORT FREJUS","zip":"83600"},{"name":"VILLA AUGUSTA","city":"SAINT-PAUL-TROIS-CH�TEAUX","zip":"26130"},{"name":"RESTAURANT 33 CITE","city":"LYON","zip":"69006"},{"name":"LE CALGARY","city":"LES SAISIES","zip":"73620"},{"name":"DOLCEMARE","city":"PROPRIANO","zip":"20110"},{"name":"L'AMBATA","city":"PROPRIANO","zip":"20110"},{"name":"LE MOULIN DE VALAURIE","city":"VALAURIE","zip":"26230"},{"name":"LE CHENE VERT","city":"SAINT-POUR�AIN-SUR-SIOULE","zip":"03500"},{"name":"LES CEDRES","city":"GRANGES-LES-BEAUMONT","zip":"26600"},{"name":"LE VAL VERRE","city":"LACS/LA CH�TRE","zip":"36400"},{"name":"LE ROBINSON","city":"SAINT-JEAN-DE-MONTS","zip":"85162"},{"name":"RESTAURANT ","city":"NASBINALS","zip":"48260"},{"name":"LA C�TE VERMEILLE","city":"PORT-VENDRES","zip":"66660"},{"name":"LE BILBOQUET","city":"ANNECY","zip":"74000"},{"name":"CR�PERIE SAINT SAUVEUR","city":"AURAY","zip":"56400"},{"name":"L'EMULSION","city":"CHASSIEU","zip":"69680"},{"name":"CREPERIE LA FREGATE","city":"LE FAOU","zip":"29590"},{"name":"LE ROYAL","city":"SAINT-GERVAIS-LES-BAINS","zip":"74170"},{"name":"","city":"MALLEMORT","zip":"13370"},{"name":"O Z'EPICES","city":"BOUILLANTE","zip":"97125"},{"name":"LA CHAINE D'OR","city":"LES ANDELYS","zip":"27700"},{"name":"LE COTTAGE DU LAC","city":"BRUGES","zip":"33520"},{"name":"LES SENS","city":"NICE","zip":"06000"},{"name":"LE CLOS SAINT ROCH","city":"MAUSSANE-LES-ALPILLES","zip":"13520"},{"name":"LE MOULIN DE CELAC","city":"QUESTEMBERT","zip":"56230"},{"name":"scev h billiot & fils","city":"AMBONNAY","zip":"51150"},{"name":"LE JARDIN AUX SOURCES","city":"BRISSAC","zip":"34190"},{"name":"LE PR� D'ANTOINE","city":"FILLINGES","zip":"74250"},{"name":"LA GRANDE BOUTEILLE","city":"CAEN","zip":"14000"},{"name":"BRASSERIE LE DONJON","city":"CARCASSONNE","zip":"11000"},{"name":"AUBERGE DU RALLYE","city":"FILLE SUR SARTHE","zip":"72210"},{"name":"H�TEL RESTAURANT BLANC","city":"MARIGNY-SAINT-MARCEL","zip":"74150"},{"name":"RESTAURANT GEORGES BLANC","city":"VONNAS","zip":"01540"},{"name":"ACACIAS BELLEVUE","city":"VEYRIER-DU-LAC","zip":"74290"},{"name":"LA TETE DE LARD","city":"LYON","zip":"69001"},{"name":"L'HOMME TRANQUILLE","city":"LE MANS","zip":"72000"},{"name":"LA CUISINE AU BEURRE","city":"POITIERS","zip":"86000"},{"name":"LA BONNE FRANQUETTE","city":"JANVRY","zip":"91640"},{"name":"HOSTELLERIE DES DUCS","city":"DURAS","zip":"47120"},{"name":"LES GRILLONS","city":"TALLOIRES","zip":"74290"},{"name":"LEONARD DE VINCI","city":"TOURS","zip":"37000"},{"name":"LE BRUEGEL","city":"BERGUES","zip":"59380"},{"name":"ORCHIDEA","city":"ST FRANCOIS","zip":"97118"},{"name":"LA MERE GERMAINE","city":"VILLEFRANCHE-SUR-MER","zip":"06230"},{"name":"LE MANOIR DES IMPRESSIONNISTES","city":"HONFLEUR","zip":"14600"},{"name":"LA BASTIDE DES MAGNANS","city":"VIDAUBAN","zip":"83550"},{"name":"DOMAINE DE LA GRANGE AUX ORMES","city":"MARLY","zip":"57155"},{"name":"RESTAURANT DES GORGES DU VERDON","city":"LA PALUD SUR VERDON","zip":"04120"},{"name":"EARL BOISSON REGIS ET BRUNO / DOMAINE BOISSON","city":"CAIRANNE","zip":"84290"},{"name":"LE VERRE Y TABLE","city":"MAINXE","zip":"16200"},{"name":"HOTEL BEAUREGARD","city":"SEVRIER","zip":"74320"},{"name":"RESTAURANT L'ECHEVIN","city":"COLMAR","zip":"68000"},{"name":"LE P'TIT ROSEAU","city":"ISSOIRE","zip":"63500"},{"name":"LA VIEILLE AUBERGE","city":"SOUILLAC","zip":"46200"},{"name":"RESTAURANT BONNET","city":"ITXASSOU","zip":"64250"},{"name":"LE C�LADON","city":"PARIS","zip":"75002"},{"name":"LA MUSE ET LE ROZIER","city":"MOSTU�JOULS","zip":"12720"},{"name":"BISTROVINO","city":"CHALLANS","zip":"85300"},{"name":"LA COCOTTE","city":"DUNKERQUE","zip":"59240"},{"name":"LE MESCLUN","city":"S�GURET","zip":"84110"},{"name":"LE FANAL","city":"BANYULS-SUR-MER","zip":"66650"},{"name":"CAF� GOURMAND","city":"DIJON","zip":"21000"},{"name":"LE CH�TEAU DE COCOVE","city":"RECQUES-SUR-HEM","zip":"62890"},{"name":"LE CLOS DU VIGNERON","city":"OUSSON-SUR-LOIRE","zip":"45250"},{"name":"Le Coeur de Vall'","city":"LANDRY","zip":"73210"},{"name":"HOSTELLERIE DE LEVERNOIS","city":"LEVERNOIS","zip":"21200"},{"name":"LES FABLES DE LA FONTAINE","city":"PARIS","zip":"75007"},{"name":"BARS ET GOURMETS","city":"CONDRIEU","zip":"69420"},{"name":"L'AIR DU TEMPS","city":"B�ZU-SAINT-�LOI","zip":"27660"},{"name":"VICTOIRE et THOMAS","city":"LYON","zip":"69001"},{"name":"RESTAURANT LE BELEM","city":"THARON-PLAGE","zip":"44730"},{"name":"TERRASSE SAINT CLAIR","city":"CALUIRE-ET-CUIRE","zip":"69300"},{"name":"LA RAPIERE","city":"BAYEUX","zip":"14440"},{"name":"AUBERGE DU PETIT VAL","city":"VERNON","zip":"27200"},{"name":"LA GRANDE TOUR","city":"SAINT-AY","zip":"45130"},{"name":"L'AROME","city":"CUGAND","zip":"85610"},{"name":"LE VAL JOLI","city":"VOUVRAY","zip":"37210"},{"name":"LA FERME DU CHOZAL","city":"HAUTELUCE","zip":"73620"},{"name":"TTOTTA","city":"SAINT-P�E-SUR-NIVELLE","zip":"64310"},{"name":"AUBERGE DU CYGNE DE LA CROIX","city":"NOGENT-SUR-SEINE","zip":"10400"},{"name":"RELAIS DE FARROU","city":"VILLEFRANCHE-DE-ROUERGUE","zip":"12200"},{"name":"LA FLEUR DE SEL","city":"CR�PY-EN-VALOIS","zip":"60800"},{"name":"AUBERGE DES VIEUX CHENES","city":"MALEMORT","zip":"19360"},{"name":"HOTEL LE LION D'OR","city":"SAINT-CH�LY-D'APCHER","zip":"48200"},{"name":"LE CHRISTIANIA","city":"LES CONTAMINES-MONTJOIE","zip":"74170"},{"name":"LE FAUX FILET","city":"PARIS","zip":"75009"},{"name":"LE BISTROT DU PORT","city":"SAINT-BRIEUC","zip":"22000"},{"name":"AU VIEUX COMPTOIR","city":"PARIS","zip":"75001"},{"name":"LE PETIT SAINT THOMAS","city":"LA GARNACHE","zip":"85710"},{"name":"LE R�SINIER","city":"LE BARP","zip":"33114"},{"name":"CASINO DES DUNES","city":"LA FAUTE/MER","zip":"85460"},{"name":"JARDIN GOURMAND","city":"AUXERRE","zip":"89000"},{"name":"RESTAURANT DU CH�TEAU","city":"SAINT-SERNIN-DU-BOIS","zip":"71200"},{"name":"EARL BOUTILLEZ GUER","city":"VILLERS-MARMERY","zip":"51380"},{"name":"L'ILLUSTRE","city":"TROYES","zip":"10000"},{"name":"LA LAURENDIERE","city":"OLIVET","zip":"45160"},{"name":"Restaurant Philippe Bouvard","city":"BALANOD","zip":"39160"},{"name":"EARL Domaine du Gu� La Guette","city":"FONTAINES-EN-SOLOGNE","zip":"41250"},{"name":"","city":"","zip":""},{"name":"LES RELAIS D'ALSACE","city":"VITR�","zip":"35500"},{"name":"restaurant la cigogne","city":"SOYAUX","zip":"16800"},{"name":"LA MANGEOIRE HOTEL MERCURE","city":"SAINT-LARY-SOULAN","zip":"65170"},{"name":"H�TEL DE FRANCE","city":"ISIGNY-SUR-MER","zip":"14230"},{"name":"LE MILLESIMES","city":"PARIS","zip":"75017"},{"name":"LE MARCHE","city":"CAHORS","zip":"46000"},{"name":"LE SUQUET","city":"LAGUIOLE","zip":"12210"},{"name":"LES PIEDS DANS L'EAU","city":"ANTHY-SUR-L�MAN","zip":"74200"},{"name":"LE SEGUSTERO","city":"SISTERON","zip":"4200"},{"name":"LA TABLE DU GOURMET","city":"RIQUEWIHR","zip":"68340"},{"name":"LA PIERREVUE","city":"SAINT-ROGATIEN","zip":"17220"},{"name":"DOMAINE MICHEL BRIDAY","city":"RULLY","zip":"71150"},{"name":"LE FLOREAL","city":"LUN�VILLE","zip":"54300"},{"name":"LE GRAND BEC","city":"PRALOGNAN","zip":"73710"},{"name":"LES FUCHSIAS","city":"SAINT-VAAST-LA-HOUGUE","zip":"50550"},{"name":"FLEUR DE SEL","city":"CAPPELLE-LA-GRANDE","zip":"59180"},{"name":"PIQU'BOEUF GRILL","city":"BEAUNE","zip":"21200"},{"name":"HOTEL VICTOR HUGO","city":"SAINT-C�R�","zip":"46400"},{"name":"LA TABLE DE MICHELE","city":"MULHOUSE","zip":"68100"},{"name":"RESTAURANT LE SAINT-JULIEN","city":"SAINT-JULIEN-BEYCHEVELLE","zip":"33250"},{"name":"RELAIS CHANTOVENT","city":"MINERVE","zip":"34210"},{"name":"LE CAFE DU PORT","city":"COMBRIT","zip":"29120"},{"name":"LA GRIOTTE","city":"SAULES","zip":"25580"},{"name":"AIL DES OURS","city":"AMIENS","zip":"80000"},{"name":"LE SENS SIX","city":"MONTPELLIER","zip":"34070"},{"name":"A L'�TOILE","city":"MITTELHAUSEN","zip":"67170"},{"name":"RESTAURANT LE MIRAMAR","city":"MARSEILLE","zip":"13002"},{"name":"LA LANGOUSTE","city":"NICE","zip":"06000"},{"name":"LA GUEULARDIERE","city":"OZOIR-LA-FERRI�RE","zip":"77330"},{"name":"L'AMARYLLIS","city":"SAINT-REMY","zip":"71100"},{"name":"LE BOUTE EN TRAIN","city":"LA ROCHELLE","zip":"17000"},{"name":"L'INATTENDU","city":"GRENOBLE","zip":"38000"},{"name":"L'IMPROMPTU","city":"NANCY","zip":"54000"},{"name":"AUX PESKED DEAUVILLE","city":"DEAUVILLE","zip":"14800"},{"name":"LA COMMANDERIE DE CHAMPAREY","city":"BOURGOIN-JALLIEU","zip":"38300"},{"name":"LE RELAIS DE LA CHEVRETTE","city":"BERNEX","zip":"74500"},{"name":"LE PAVE DE SARS","city":"SARS-POTERIES","zip":"59216"},{"name":"LES CUISINES DU CH�TEAU","city":"GORDES","zip":"84220"},{"name":"LE CLOS DE L'HIRONDELLE","city":"MONTPELLIER","zip":"34070"},{"name":"L'ESCAMPETTE","city":"NEFFI�S","zip":"34230"},{"name":"LA TABLE D'EUGENE","city":"LYON","zip":"69001"},{"name":"AUBERGE DES SAINTS-P�RES","city":"AULNAY-SOUS-BOIS","zip":"93600"},{"name":"L'AMBASSADE DES TERROIRS","city":"GENNEVILLIERS","zip":"92230"},{"name":"LE BEC AU CAUCHOIS","city":"VALMONT","zip":"76540"},{"name":"AU P�RE LAPIN","city":"SURESNES","zip":"92150"},{"name":"RENALDO","city":"LATTES","zip":"34970"},{"name":"U MINELLU","city":"CALVI","zip":"20260"},{"name":"champagne Pierre Callot","city":"AVIZE","zip":"51190"},{"name":"LA MEUNIERE","city":"LYON","zip":"69001"},{"name":"LE RELAIS D'ALIGRE","city":"CH�TEAUNEUF","zip":"28170"},{"name":"L'ENTRECOTE","city":"MONTPELLIER","zip":"34000"},{"name":"A la fontaine au beurre","city":"LOCMIN�","zip":"56500"},{"name":"LA CALYPSO","city":"CARNAC PLAGE","zip":"56340"},{"name":"DOMAINE DU SEUDRE","city":"SAINT-GERMAIN-DU-SEUDRE","zip":"17240"},{"name":"LA TETRADE COTE LAC","city":"HOSSEGOR","zip":"40150"},{"name":"LA TETRADE COTE PORT","city":"CAPBRETON","zip":"40130"},{"name":"LE PARELOUP","city":"PARIS","zip":"75015"},{"name":"LE BERGERAC","city":"MORANCEZ","zip":"28630"},{"name":"LA TABLE D'ANTAN","city":"BON-ENCONTRE","zip":"47240"},{"name":"LES GARCONS BOUCHERS","city":"LYON","zip":"69003"},{"name":"LA GARENNE","city":"CAHORS","zip":"46000"},{"name":"AUX TERRASSES","city":"TOURNUS","zip":"71700"},{"name":"LA MAISON CARRIER","city":"CHAMONIX-MONT-BLANC","zip":"74400"},{"name":"LE PATIO","city":"VILLEFRANCHE-DE-CONFLENT","zip":"66500"},{"name":"LOU PEBRE D'A�","city":"PLAN D'AUPS","zip":"83640"},{"name":"LES COPAINS D'ABORD","city":"TOULOUSE","zip":"31000"},{"name":"LE MANEGE RESTAURANT","city":"SAINT-GERMAIN-EN-LAYE","zip":"78100"},{"name":"LE PETIT COMMINES","city":"PARIS","zip":"75003"},{"name":"L'OURS BLANC","city":"SAINT-MARTIN-DE-BELLEVILLE","zip":"73440"},{"name":"LA PLAGE GOURMANDE","city":"CANET-EN-ROUSSILLON","zip":"66140"},{"name":"QUINTE ET SENS","city":"POISAT","zip":"38320"},{"name":"H�TEL RESTAURANT KERMOOR","city":"PLOGOFF","zip":"29770"},{"name":"CUISINE COMPTOIR ET COMPAGNIE","city":"NIORT","zip":"79000"},{"name":"LA PETITE AUBERGE","city":"BERGHOLTZ","zip":"68500"},{"name":"LE CASTILLAN","city":"LA GRAVE","zip":"05230"},{"name":"LA TABLE DU CAMPAGNARD","city":"TREFFORT","zip":"38650"},{"name":"LA TABLE DU BOURG","city":"LE BOURG-D'OISANS","zip":"38520"},{"name":"LA BERGERIE DE PLANPRAZ","city":"CHAMONIX","zip":"74400"},{"name":"RESTAURANT LE 3842","city":"CHAMONIX","zip":"74400"},{"name":"TERRASSE CAFE","city":"CHAMONIX-MONT-BLANC","zip":"74400"},{"name":"L'ADRET DE LA FLEGERE","city":"CHAMONIX","zip":"74400"},{"name":"PLAN JORAN","city":"CHAMONIX","zip":"74400"},{"name":"LE JARROUSSET","city":"VIRARGUES","zip":"15300"},{"name":"RESTAURANT CAZAUDEHORE","city":"SAINT-GERMAIN-EN-LAYE","zip":"78100"},{"name":"LE TIVOLI","city":"VIC-EN-BIGORRE","zip":"65500"},{"name":"L'ART DE VIVRE- CH�TEAU DE L'HOSPITALET","city":"NARBONNE","zip":"11100"},{"name":"LA TABLE DE FERNAND","city":"ARGENTAN","zip":"61200"},{"name":"BISTROT VALOIS","city":"PARIS","zip":"75001"},{"name":"VILLA REGALIDO","city":"FONTVIEILLE","zip":"13990"},{"name":"LA VOUTE CHEZ LEA","city":"LYON","zip":"69002"},{"name":"LA COTE ET L'ARETE","city":"CLERMONT FERRAND","zip":"63000"},{"name":"L'O DES VIGNES","city":"FUISS�","zip":"71960"},{"name":"LA TABLE DE NICOLAS","city":"BOULOGNE-SUR-MER","zip":"62200"},{"name":"LA GARAUDIERE","city":"LEVERNOIS","zip":"21200"},{"name":"LA CABRO D'OR","city":"LES BAUX-DE-PROVENCE","zip":"13520"},{"name":"LE CHANNEL","city":"OUISTREHAM","zip":"14150"},{"name":"LE PLAISIR DES GOURMANDS","city":"DUERNE","zip":"69850"},{"name":"HOSTELLERIE DE FONTANGES","city":"ONET-LE-CH�TEAU","zip":"12850"},{"name":"HOTEL RESTAURANT CHARTRON","city":"SAINT-DONAT-SUR-L'HERBASSE","zip":"26260"},{"name":"MAISON GAMBERT","city":"TAIN-L'HERMITAGE","zip":"26600"},{"name":"L'ALBATROS","city":"DAMGAN","zip":"56750"},{"name":"RESTAURANT D'IZOARD","city":"CERVI�RES","zip":"05100"},{"name":"A L'ERE DU TEMPS","city":"REIMS","zip":"51100"},{"name":"LA CUILLERE A OMBLE","city":"DOUSSARD","zip":"74210"},{"name":"Le jardin des saveurs","city":"L�SIGNY","zip":"77150"},{"name":"L'ALEZAN","city":"ALEN�ON","zip":"61000"},{"name":"ABBAYE DE TALLOIRES","city":"TALLOIRES","zip":"74290"},{"name":"RESTAURANT TANTE YVONNE","city":"QUINCIEUX","zip":"69650"},{"name":"LA GARE Restaurant","city":"FEURS","zip":"42110"},{"name":"ENTRE VIGNE & GARRIGUE","city":"PUJAUT","zip":"30131"},{"name":"LE TIRE BOUCHON","city":"LYON","zip":"69005"},{"name":"CHEZ MARCEL","city":"PARIS","zip":"75006"},{"name":"LE MADELEINE","city":"VERNEUIL-SUR-AVRE","zip":"27130"},{"name":"RESTAURANT CHEVALIER","city":"SAINT-�TIENNE","zip":"42100"},{"name":"LE CHEVAL BLANC","city":"LANGRES","zip":"52200"},{"name":"LE JARDIN","city":"NEUFCH�TEL-SUR-AISNE","zip":"02190"},{"name":"RESTAURANT BOIS JOLY","city":"CROZET","zip":"01170"},{"name":"BO BISTROT","city":"VED�NE","zip":"84270"},{"name":"LE POISSON D'ARGENT","city":"CABOURG","zip":"14390"},{"name":"LA BASTIDE SAINT ANTOINE","city":"GRASSE","zip":"06130"},{"name":"LE RELAIS FLEURI","city":"SAUVIGNY-LE-BOIS","zip":"89200"},{"name":"LA PART DES ANGES","city":"B�CHEREL","zip":"35190"},{"name":"LE TOURDION","city":"ROANNE","zip":"42300"},{"name":"AUB DU CHEMIN DE FER","city":"LANESTER","zip":"56600"},{"name":"LE GREEN ST LAZARE","city":"LIMOGES","zip":"87000"},{"name":"MON PETIT RESTO","city":"MOUANS-SARTOUX","zip":"06370"},{"name":"LE CLOS DU CELLIER","city":"LE CELLIER","zip":"44850"},{"name":"LA PIGNATO","city":"LE LAVANDOU","zip":"83980"},{"name":"A TABLE","city":"EPFIG","zip":"67680"},{"name":"FLEUR DE SUREAU","city":"GAMBSHEIM","zip":"67760"},{"name":"Le virgil","city":"FENOUILLET","zip":"31150"},{"name":"RESTAURANT LE 32","city":"VAULX-EN-VELIN","zip":"69120"},{"name":"AUBERGE DE THOIRE","city":"THOIRETTE-COISIA","zip":"39240"},{"name":"LE BELLEVUE","city":"ST HYPPOLITE SUR LE DOUBS","zip":"25190"},{"name":"BEST WESTERN LA FAYETTE","city":"�PINAL","zip":"88002"},{"name":"LA TAVERNE ALSACIENNE","city":"G�RARDMER","zip":"88400"},{"name":"LE 44","city":"ANTIBES","zip":"06600"},{"name":"CHEZ BASTIEN","city":"SAINT-JEAN-DE-MONTS","zip":"85160"},{"name":"LE MOULIN DES SAVEURS","city":"DISTRE SAUMUR","zip":"49400"},{"name":"AUX 2 FONTAINES","city":"LORGUES","zip":"83510"},{"name":"Le Grand R�fectoire","city":"LYON","zip":"69002"},{"name":"LA HALTE NAUTIQUE","city":"BELLEGRADE","zip":"30127"},{"name":"anthony\\'z","city":"ANNECY-LE-VIEUX","zip":"74940"},{"name":"LE PETIT PONTOISE","city":"PARIS","zip":"75005"},{"name":"LA TABLE D'AIME","city":"RIVESALTES","zip":"66600"},{"name":"LA FABRIQUE","city":"SAINT-DENIS","zip":"97400"},{"name":"le magellan","city":"TH�OULE-SUR-MER","zip":"06590"},{"name":"QUAI OUEST","city":"POINTE A PITRE","zip":"97110"},{"name":"HISTOIRE ANCIENNE","city":"CALAIS","zip":"62100"},{"name":"RESTAURANT K'LOYS","city":"PAIMPOL","zip":"22500"},{"name":"LA CHARTREUSE DU VAL SAINT ESPRIT","city":"GOSNAY","zip":"62199"},{"name":"LE RIVALET","city":"MONTAIGUT-LE-BLANC","zip":"63320"},{"name":"Domaine de Chastelet","city":"QUINSAC","zip":"33360"},{"name":"AUBERGE REFUGE DU NEUWEIHER","city":"OBERBRUCK","zip":"68290"},{"name":"LES FLOTS BLEUS","city":"BEAULIEU-SUR-DORDOGNE","zip":"19120"},{"name":"LE BISTROT DE LA PERLE","city":"G�RARDMER","zip":"88400"},{"name":"AU FIL DES SAISONS","city":"MEZY CORBON","zip":"14370"},{"name":"LES CLOYERES","city":"BERNIN","zip":"38190"},{"name":"AU COLOMBIER","city":"ANSE","zip":"69480"},{"name":"LE PATIO","city":"FONTVIEILLE","zip":"13990"},{"name":"HOTEL DU PONT","city":"THOR�-LA-ROCHETTE","zip":"41100"},{"name":"BRASSERIE PAUL","city":"ROUEN","zip":"76000"},{"name":"LA MARINE","city":"NOIRMOUTIER-EN-L'�LE","zip":"85330"},{"name":"LA SIESTA","city":"ROYAN","zip":"17200"},{"name":"RESTAURANT DORMY HOUSE","city":"�TRETAT","zip":"76790"},{"name":"LE SAINT GEORGES","city":"PALAVAS-LES-FLOTS","zip":"34250"},{"name":"Le Caf� du Ch�teau","city":"AUBENAS","zip":"07200"},{"name":"CHEZ ROSEMONDE","city":"LES SABLES-D'OLONNE","zip":"85100"},{"name":"TOIT POUR TOI","city":"ORCET","zip":"63670"},{"name":"L'ILOT BLEU","city":"NOIRMOUTIER-EN-L'�LE","zip":"85330"},{"name":"LA CHARBONNIERE","city":"ANCENIS","zip":"44150"},{"name":"CAFFE MAZZO","city":"CLERMONT FERRAND","zip":"63000"},{"name":"BRASSERIE DES HALLES","city":"LE HAVRE","zip":"76600"},{"name":"L'ACHEDA","city":"BONIFACIO","zip":"20169"},{"name":"LA BRASSERIE DU FRAN�AIS","city":"BOURG-EN-BRESSE","zip":"01000"},{"name":"L'ANNEXE","city":"CLERMONT FERRAND","zip":"63000"},{"name":"VINCENT CROIZARD","city":"N�MES","zip":"30900"},{"name":"DOMAINE DE MAGALANNE","city":"DOMAZAN","zip":"30390"},{"name":"LES PETITS VENTRES","city":"LIMOGES","zip":"87000"},{"name":"LES GOURMANDISES","city":"�PINAL","zip":"88000"},{"name":"RESTAURANT DU CH�TEAU","city":"KAYSERSBERG","zip":"68240"},{"name":"CAFE FLOW","city":"LA TOUR DE SALVAGNY","zip":"69890"},{"name":"BRASSERIE FLOW","city":"CHASSIEU","zip":"69680"},{"name":"TI KAZ'LA","city":"TERRE DE HAUT","zip":"97137"},{"name":"LE LOUIS XVI","city":"PARIS","zip":"75008"},{"name":"L'AUBERGE DE LA CH�VRE D'OR","city":"CABRIS","zip":"06530"},{"name":"LE REFUGE","city":"MERIBLE LES ALLUES","zip":"73550"},{"name":"LE RIBOULDINGUE","city":"BLAGNAC","zip":"31700"},{"name":"L'ATELIER RAMEY","city":"PARIS","zip":"75018"},{"name":"AUBERGE  CHEVAL BLANC","city":"YVOY-LE-MARRON","zip":"41600"},{"name":"LE FEU DE BOIS","city":"ORL�AT","zip":"63190"},{"name":"LES TOURNESOLS","city":"THONON-LES-BAINS","zip":"74200"},{"name":"SCA Cave de Labastide de L�vis","city":"LABASTIDE DE L�VIS","zip":"81150"},{"name":"Destination Grand Comptoir","city":"BORDEAUX","zip":"33300"},{"name":"Armagnacs Darroze","city":"ROQUEFORT","zip":"40120"},{"name":"RESTAURANT AU PONT DE L'ILL","city":"LA WANTZENAU","zip":"67610"},{"name":"POMZE","city":"PARIS","zip":"75008"},{"name":"CH�TEAU DE LA COMMANDERIE","city":"EYBENS","zip":"38320"},{"name":"DANS LE NOIR","city":"PARIS","zip":"75004"},{"name":"Le Bastion","city":"LARGRASSE","zip":"11220"},{"name":"Celest Bar et Restaurant","city":"LYON 3E ARRONDISSEMENT","zip":"69003"},{"name":"AU P'TIT MUNSTER","city":"MUNSTER","zip":"68140"},{"name":"LA PETILLE","city":"MAGNY-EN-VEXIN","zip":"95420"},{"name":"LA FOLIE DOUCE- RESTAURANT LA FRUITIERE","city":"VAL THORENS","zip":"73440"},{"name":"L'ECLUSE","city":"VILLENEUVE LES BEZIERS","zip":"34420"},{"name":"VILLA CYRIEL","city":"CONTES","zip":"06390"},{"name":"GASPARD DE LA NUIT","city":"PARIS","zip":"75004"},{"name":"LE CHALET","city":"AX-LES-THERMES","zip":"09110"},{"name":"HOSTELLERIE DE LA CHENEAUDI�RE","city":"COLROY-LA-ROCHE","zip":"67420"},{"name":"LA MERISE","city":"LAUBACH","zip":"67580"},{"name":"NEIGE ET ROC","city":"SAMO�NS","zip":"74340"},{"name":"LE CLAIR DE LUNE","city":"LILLE","zip":"59000"},{"name":"Restaurant le CITRUS","city":"DINARD","zip":"35800"},{"name":"ATELIER D'AVRON","city":"LE PERREUX-SUR-MARNE","zip":"94170"},{"name":"LES ALISIERS","city":"LAPOUTROIE","zip":"68650"},{"name":"RESTAURANT LE BEL AMI","city":"LE V�SINET","zip":"78110"},{"name":"LE LANCELOT","city":"CHILLEURS-AUX-BOIS","zip":"45170"},{"name":"LA FLAMB�E","city":"BERGERAC","zip":"24100"},{"name":"Sarl Michel et Alain Fermiers bio","city":"SAINT-FRAIMBAULT","zip":"61350"},{"name":"L'INSOLITE","city":"CAEN","zip":"14000"},{"name":"LE RELAIS DU QUERCY","city":"MEYSSAC","zip":"19500"},{"name":"SCEV DELAVENNE PERE ET FILS","city":"BOUZY","zip":"51150"},{"name":"L'ESCAPADE","city":"B�DOIN","zip":"84410"},{"name":"COULEURS SAVEURS","city":"BRICQUEVILLE-SUR-MER","zip":"50290"},{"name":"LE LION D'OR�","city":"AMBOISE","zip":"37400"},{"name":"LE GOURMANDIN","city":"SIERENTZ","zip":"68510"},{"name":"L'AQUILON","city":"HAUTOT-SUR-MER","zip":"76550"},{"name":"LA TABLE DE LOUIS","city":"ROQUEBRUNE-SUR-ARGENS","zip":"83520"},{"name":"RESTAURANT DU COMMERCE","city":"RIEUPEYROUX","zip":"12240"},{"name":"L'OURSIN BLEU","city":"VILLEFRANCHE-SUR-MER","zip":"06230"},{"name":"RESTAURANT LE YUCCA","city":"PERPIGNAN","zip":"66000"},{"name":"VATEL CHANTILLY","city":"CHANTILLY","zip":"60500"},{"name":"Le grain de sel des 3 Tiki","city":"BRIVE-LA-GAILLARDE","zip":"19100"},{"name":"le castel fleuri","city":"CARNOULES","zip":"83660"},{"name":"DE BALAJAN","city":"VIC-LA-GARDIOLE","zip":"34110"},{"name":"LE MABOUYA DANS LA BOUTEILLE","city":"ST FRANCOIS","zip":"97118"},{"name":"LE JARDIN DE PAMPLEMOUSSE","city":"BAIE MAHAUT","zip":"97122"},{"name":"AUBERGE DE BRECA","city":"SAINT-LYPHARD","zip":"44410"},{"name":"H.R DU NORD","city":"SAINT-JEAN-DE-MAURIENNE","zip":"73370"},{"name":"Le Fusain","city":"PARIS","zip":"75018"},{"name":"LOU CALEOU ","city":"SOMMI�RES","zip":"30250"},{"name":"Vignobles Despagne-Rapin","city":"MONTAGNE","zip":"33570"},{"name":"LA CHARPINIERE","city":"SAINT-GALMIER","zip":"42330"},{"name":"AUBERGE DE TI COZ","city":"QUIMPER","zip":"29000"},{"name":"HOSTELLERIE DU GRAND SULLY","city":"SULLY-SUR-LOIRE","zip":"45600"},{"name":"AUBERGE DU BORN","city":"SAINT-JULIEN-EN-BORN","zip":"40170"},{"name":"LE CHEVAL NOIR","city":"BEAUNE","zip":"21200"},{"name":"LE LANGOUSTIER","city":"CAMARET-SUR-MER","zip":"29570"},{"name":"Caviar de Neuvic HUSO","city":"NEUVIC SUR L'ISLE","zip":"24190"},{"name":"L'�NE ROUGE","city":"NICE","zip":"06300"},{"name":"LA VILLA MARINE","city":"LE TR�PORT","zip":"76470"},{"name":"Le Floril�ge Chamb�ry","city":"BASSENS","zip":"73000"},{"name":"Le Floril�ge Saint Jorioz","city":"SAINT-JORIOZ","zip":"74410"},{"name":"WISTUB BRENNER","city":"COLMAR","zip":"68000"},{"name":"BISTROT DES LAVANDIERES","city":"COLMAR","zip":"68000"},{"name":"LA BRASSERIE DES MONTS D'OR","city":"SAINT-CYR-AU-MONT-D'OR","zip":"69450"},{"name":"Restaurant L'Osmose","city":"PLEUDIHEN-SUR-RANCE","zip":"22690"},{"name":"LES MELEZES","city":"LES DEUX ALPES","zip":"38860"},{"name":"L'ARCHELLE","city":"PARIS","zip":"75015"},{"name":"LE BARRIOL","city":"SAINT-JULIEN-CHAPTEUIL","zip":"43260"},{"name":"LE MOULIN DE BOURGCHATEAU","city":"LOUHANS","zip":"71500"},{"name":"VILLA DONDELLI","city":"PARIS","zip":"75002"},{"name":"Vignes Secr�tes","city":"SAINT-CIERS-DE-CANESSE","zip":"33710"},{"name":"LE TEMPS DES SAISONS","city":"JONAGE","zip":"69330"},{"name":"LABEL BRAISE","city":"S�GOUFIELLE","zip":"32600"},{"name":"RESTAURANT L'AUBERGE","city":"SAINTE ANNE D AURAY","zip":"56400"},{"name":"LES AGAPES","city":"VENCE","zip":"06140"},{"name":"LE MAS DES OLIVIERS","city":"SAINT-HERBLAIN","zip":"44800"},{"name":"LE CAMBRONNE","city":"NANTES","zip":"44000"},{"name":"LA POTINIERE DU PALAIS","city":"CANNES","zip":"06400"},{"name":"LE SLOOP","city":"LES SABLES-D'OLONNE","zip":"85100"},{"name":"H�TEL FLORIMONT & LE CHALET FLORIMONT","city":"SAINT-FERR�OL","zip":"74210"},{"name":"LES TRESOMS","city":"ANNECY","zip":"74000"},{"name":"LE GRAND MORIEN","city":"DUNKERQUE","zip":"59140"},{"name":"HOSTELLERIE SAINT LOUIS","city":"BOLLEZEELE","zip":"59470"},{"name":"AUBERGE DE L'OMOIS","city":"BAULNE-EN-BRIE","zip":"02330"},{"name":"SOLENCA","city":"NOGARO","zip":"32110"},{"name":"BRASSERIE LE M","city":"ORL�ANS","zip":"45000"},{"name":"BRASSERIE CHAVANT","city":"GRENOBLE","zip":"38000"},{"name":"LA TABLE  DU COUVENT","city":"LIMOGES","zip":"87000"},{"name":"LA TABLE DE BEAURECUEIL","city":"BAURECUEIL","zip":"13100"},{"name":"VILLA DUFLOT","city":"PERPIGNAN","zip":"66000"},{"name":"LA TABLE","city":"METZ","zip":"57000"},{"name":"AU CHAPEAU ROUGE","city":"CHINON","zip":"37500"},{"name":"LA FONTAINE","city":"CREUZIER-LE-VIEUX","zip":"03300"},{"name":"LES COCOTTES DE CHRISTIAN CONSTANT","city":"SAINT-JULIEN-EN-GENEVOIS","zip":"74160"},{"name":"RESTAURANT DES PROMENEURS","city":"SAINT-PAULIEN","zip":"43350"},{"name":"LA MAISON","city":"COGNAC","zip":"16100"},{"name":"earl p�degert. famille dumecq","city":"POMAREZ","zip":"40360"},{"name":"LA BELLE ETOILE","city":"VILLEFRANCHE-SUR-MER","zip":"06230"},{"name":"LE QUAI","city":"AMIENS","zip":"80000"},{"name":"LE MANOIR DU SPHINX","city":"PERROS-GUIREC","zip":"22700"},{"name":"CH�TEAU DE LA TOUR","city":"B�GUEY","zip":"33410"},{"name":"LE SAINT M","city":"SAINT-MARTIN-DE-CRAU","zip":"13310"},{"name":"H�TEL DE LA MARINE","city":"ARROMANCHES-LES-BAINS","zip":"14117"},{"name":"LA PETITE MARMITE","city":"GAP","zip":"05000"},{"name":"L'ILOT DE LA GODINE","city":"DREVANT","zip":"18200"},{"name":"LA BRACONNE","city":"SALLANCHES","zip":"74700"},{"name":"Le Purgatoire","city":"STRASBOURG","zip":"67000"},{"name":"RESTAURANT MAXIMILIEN","city":"ZELLENBERG","zip":"68340"},{"name":"CAVEAU MORAKOPF","city":"NIEDERMORSCHWIHR","zip":"68230"},{"name":"LE RECIPROQUE","city":"PARIS","zip":"75018"},{"name":"LA HACHE","city":"STRASBOURG","zip":"67000"},{"name":"LE SAINT PIERRE","city":"DREUX","zip":"28100"},{"name":"LES CEDRES DU LIBAN","city":"PARIS","zip":"75015"},{"name":"AU VIEUX GASSIN","city":"GASSIN","zip":"83580"},{"name":"MANOIR DE MO�LLIEN","city":"PLON�VEZ-PORZAY","zip":"29550"},{"name":"LES REMPARTS","city":"SALERS","zip":"15140"},{"name":"AUX MAISONS","city":"MAISONS-L�S-CHAOURCE","zip":"10210"},{"name":"AU COQ BLANC","city":"STRASBOURG","zip":"67000"},{"name":"LE PLOUC 2","city":"CHERBOURG","zip":"50100"},{"name":"L'ATELIER DE NICOLAS","city":"AIGUES-MORTES","zip":"30220"},{"name":"AR MAEN HIR","city":"LOCRONAN","zip":"29180"},{"name":"LE RELAIS DES PUYS","city":"ORCINES","zip":"63870"},{"name":"LE ROYAL JUSSIEU","city":"PARIS","zip":"75005"},{"name":"ARMORIC H�TEL","city":"B�NODET","zip":"29950"},{"name":"LE PETIT GOURMAND","city":"TARBES","zip":"65000"},{"name":"BISTROT TERRASSE","city":"JUAN-LES-PINS","zip":"06160"},{"name":"RESTAURANT CHILHAR","city":"ESPELETTE","zip":"64250"},{"name":"BRASSERIE ETIENNE - BIERE LA GERVOISE","city":"SAINT GERVAIS","zip":"30200"},{"name":"RESTAURANT COLLIN","city":"FERRETTE","zip":"68480"},{"name":"DU COTE DE MARJON","city":"SOUCIEU EN JAREST","zip":"69510"},{"name":"BALADE DES SAVEURS","city":"L'ISLE-SUR-LA-SORGUE","zip":"84800"},{"name":"LE COLONIAL","city":"CANGEY","zip":"37530"},{"name":"RESTAURANT DE LA PLACE","city":"SAINT-JEAN-D'ANG�LY","zip":"17400"},{"name":"Restaurant Le Terminus","city":"RUOMS","zip":"07120"},{"name":"LE F2","city":"LYON","zip":"69002"},{"name":"ELO-CJ JOSSAMEL","city":"LANDREVILLE","zip":"10110"},{"name":"H�TEL-RESTAURANT LE SAINT-JACQUES","city":"THORIGN�-SUR-DU�","zip":"72160"},{"name":"L'�LAN 9","city":"PARIS","zip":"75009"},{"name":"RESTAURANT PIANO","city":"MARSEILLE","zip":"13006"},{"name":"CHAI NOUS COMME CHAI VOUS","city":"LA FLOTTE EN RE","zip":"17630"},{"name":"LE GRAND JARDIN","city":"BAUME-LES-MESSIEURS","zip":"39210"},{"name":"LA FERME DES TROIS CAPUCINES","city":"TIGNES","zip":"73320"},{"name":"O'BISTROT","city":"MIONS","zip":"69780"},{"name":"BRASSERIE DU 7�me ART","city":"AUDINCOURT","zip":"25400"},{"name":"POURQUOI PAS","city":"PLAISANCE-DU-TOUCH","zip":"31830"},{"name":"LE PANORAMIQUE","city":"LA PERNELLE","zip":"50630"},{"name":"COSTA D'AMALFI","city":"PARIS","zip":"75007"},{"name":"CHEZ LES GONES","city":"LYON","zip":"69003"},{"name":"L'ANTIDOTE","city":"CANNES","zip":"06400"},{"name":"L'ancien moulin","city":"HOUDEMONT","zip":"54180"},{"name":"LA CAFETIERE FELEE","city":"ANTIBES","zip":"06600"},{"name":"BLACK PEARL","city":"SAINT-FRAN�OIS","zip":"97118"},{"name":"DOMAINE DE PISCIA","city":"FIGARI","zip":"20114"},{"name":"CASA FIORINO","city":"LA LONDE-LES-MAURES","zip":"83250"},{"name":"AU VIEUX PORCHE","city":"EGUISHEIM","zip":"68420"},{"name":"L'ADRESSE","city":"VALS-LES-BAINS","zip":"07600"},{"name":"LE VIVIER","city":"L'ISLE-SUR-LA-SORGUE","zip":"84800"},{"name":"HOSTELLERIE D'ALSACE","city":"CERNAY","zip":"68700"},{"name":"CAFE COMPTOIR ABEL","city":"LYON","zip":"69002"},{"name":"FLOTTES","city":"PARIS","zip":"75001"},{"name":"LES SENS DE LA TOUPINE","city":"MIRAMAS LE VIEUX","zip":"13140"},{"name":"LA TERRASSE DES ETANGS","city":"VONNAS","zip":"01540"},{"name":"NONNA GIULIA","city":"ESSEY-L�S-NANCY","zip":"54270"},{"name":"L'AUBERGE DES TILLEULS","city":"CHANC�","zip":"35680"},{"name":"L'ARCOMBELLE","city":"MONTIGNY-LE-ROI","zip":"52140"},{"name":"LE MESTURET","city":"PARIS","zip":"75002"},{"name":"COMPTOIR JOA - CASINO DES PINS","city":"LES SABLES-D'OLONNE","zip":"85109"},{"name":"AUBERGE DES DEUX MAGOTS","city":"LA ROCHE-BERNARD","zip":"56130"},{"name":"LA MERENDA","city":"LA MARTRE","zip":"83840"},{"name":"Auberge de la Belette","city":"LE MONESTIER","zip":"63890"},{"name":"CAFE BRUNET","city":"ANNECY-LE-VIEUX","zip":"74940"},{"name":"L'EQUINOXE","city":"LA TRANCHE-SUR-MER","zip":"85360"},{"name":"LA FLEUR DE SEL","city":"CERCOTTES","zip":"45520"},{"name":"LA CHATELLENIE","city":"AVAILLES-LIMOUZINE","zip":"86460"},{"name":"LA TABLE DU TRAPPEUR","city":"MEG�VE","zip":"74120"},{"name":"LE CHEVAL ROUGE","city":"SAINTE-MENEHOULD","zip":"51800"},{"name":"RESTAURANT LE CAPU","city":"NANCY","zip":"54000"},{"name":"RESTAURANT ENTRE-ROCHES","city":"VILLE-DU-PONT","zip":"25650"},{"name":"L'ASSIETTE CREUSE","city":"DESCARTES","zip":"37160"},{"name":"LA CANTINE DU CUR�","city":"NANTES","zip":"44000"},{"name":"BRASSERIE QUARTIER GABRIEL","city":"MONTBONNOT-SAINT-MARTIN","zip":"38330"},{"name":"LE MODERNE","city":"MONT�LIMAR","zip":"26200"},{"name":"RESTAURANT A LA 12","city":"DELME","zip":"57590"},{"name":"ZEBULON","city":"PARIS","zip":"75001"},{"name":"PIROUETTE","city":"PARIS","zip":"75001"},{"name":"TRANSPARENCE","city":"NANCY","zip":"54000"},{"name":"RESTAURANT LA TABLE ALSACIENNE","city":"FAR�BERSVILLER","zip":"57450"},{"name":"LE BLAVET","city":"PARIS","zip":"75015"},{"name":"LES �TANGS DE GUIBERT","city":"NEUFCH�TEL-EN-SAOSNOIS","zip":"72600"},{"name":"LA CORDE A LINGE","city":"STRASBOURG","zip":"67000"},{"name":"LE RELAIS DES SAVEURS","city":"MARLENHEIN","zip":"67520"},{"name":"LA CABANE DU FIER","city":"ARS-EN-R�","zip":"17590"},{"name":"Champagne Ch�teau de Boursault","city":"BOURSAULT","zip":"51480"},{"name":"LES EPICURIENS","city":"SAINTE-PREUVE","zip":"02350"},{"name":"LE BISTROT D'OLIVIER","city":"LIMOGES","zip":"87000"},{"name":"AUBERGE DE TRANHEIM","city":"TRAENHEIM","zip":"67310"},{"name":"LA MARINIERE","city":"REMIRE MONTJOLY","zip":"97354"},{"name":"LE SANSOT","city":"TOURRETTES-SUR-LOUP","zip":"06140"},{"name":"LES PALMIERS","city":"M�ZE","zip":"34140"},{"name":"DOMAINE DU NORMANDOUX","city":"TERC�","zip":"86800"},{"name":"LA COLOMBE","city":"B�DOIN","zip":"84410"},{"name":"LA FLAMICHE","city":"ROYE","zip":"80700"},{"name":"LA PALETTE","city":"WETTOLSHEIM","zip":"68920"},{"name":"LE PETIT MEUNIER","city":"MESSIMY","zip":"69510"},{"name":"LE GAIGNE","city":"PARIS","zip":"75008"},{"name":"L'ANCIENNE ECOLE","city":"PALAU-DEL-VIDRE","zip":"66690"},{"name":"LA TABLE DE NANS","city":"LA CIOTAT","zip":"13600"},{"name":"CASA NISSA","city":"NICE","zip":"06000"},{"name":"RESTO BISTRO DU'O","city":"RUMILLY","zip":"74150"},{"name":"LE VAUBAN","city":"MONTREUIL SUR MER","zip":"62170"},{"name":"LE MARMITROLL","city":"MEYSSE","zip":"07400"},{"name":"L'AUBERGE DE CASSAGNE","city":"LE PONTET","zip":"84130"},{"name":"la nouvelle vague","city":"ARGEL�S-SUR-MER","zip":"66700"},{"name":"BRASSERIE GEORGES","city":"LYON","zip":"69002"},{"name":"LE LUCULLUS","city":"MONTMORILLON","zip":"86500"},{"name":"Le Coraly","city":"REZ�","zip":"44400"},{"name":"LA MAISON DE MARIE","city":"NICE","zip":"06000"},{"name":"GEORGETTE","city":"PARIS","zip":"75006"},{"name":"AUBERGE DE LA TOUR","city":"SENNENCE LES MACON","zip":"71000"},{"name":"LE SMART","city":"DIJON","zip":"21000"},{"name":"RESTAURANT PIERRE","city":"M�CON","zip":"71000"},{"name":"SCEA  DU FOUR BASSOT","city":"SAINT-MARD-DE-VAUX","zip":"71640"},{"name":"AUBERGE DE LA GRENOUILLERE","city":"LA MADELAINE SOUS MONTREUIL","zip":"62170"},{"name":"LES EMBRUNS","city":"ARCACHON","zip":"33120"},{"name":"HOTEL RESTAURANT LES VOYAGEURS","city":"LOUD�AC","zip":"22600"},{"name":"LE BOUCHON SULLY","city":"LYON","zip":"69006"},{"name":"LES ORANGERIES","city":"LUSSAC-LES-CH�TEAUX","zip":"86320"},{"name":"HOSTELLERIE REYGROBELLET","city":"ST GERMAIN DE JOUX","zip":"1490"},{"name":"LE CHALET","city":"SAINT-MARS-LA-JAILLE","zip":"44540"},{"name":"LA TABL'ATURE","city":"LYON","zip":"69007"},{"name":"LE SEJOUR CAFE","city":"NICE","zip":"06000"},{"name":"RESTAURANT DE L'AGRICULTURE","city":"BARAQUEVILLE","zip":"12160"},{"name":"AUBERGE RAVOUX","city":"AUVERS-SUR-OISE","zip":"95430"},{"name":"L'INTEMPOREL","city":"BOLL�NE","zip":"84500"},{"name":"LE BOEUF ROUGE","city":"SAINT-JUNIEN","zip":"87200"},{"name":"HOTEL BERGERET SPORT","city":"HENDAYE-PLAGE","zip":"64700"},{"name":"L'HOSTELLERIE D'ACQUIGNY","city":"ACQUIGNY","zip":"27400"},{"name":"LE BENGY","city":"VARENNES-VAUZELLES","zip":"58640"},{"name":"LE TREFLE","city":"PORTET-SUR-GARONNE","zip":"31120"},{"name":"LA CORDERIE","city":"SAINT-MALO","zip":"35400"},{"name":"LE LIDO","city":"G�RARDMER","zip":"88400"},{"name":"AUBERGE DE VEZON","city":"MARIEULLES-VEZON","zip":"57420"},{"name":"RESTAURANT LA TRINQUETTE","city":"GRANDCAMP MAIZY","zip":"14450"},{"name":"AU BOEUF AUBERGE","city":"SESSENHEIM","zip":"67770"},{"name":"AUBERGE DU  VAL DE VIENNE","city":"SAZILLY","zip":"37220"},{"name":"LE PRE DE MONTPEZAT","city":"MONTPEZAT-DE-QUERCY","zip":"82270"},{"name":"HOTEL DE LA GARE","city":"COUZON-AU-MONT-D'OR","zip":"69270"},{"name":"sarl domaine de la perdrix","city":"TROUILLAS","zip":"66300"},{"name":"La table d�Ambre","city":"LYON","zip":"69002"},{"name":"LA TABLE DU 5","city":"BARR","zip":"67140"},{"name":"AUBERGE DES CHENETS","city":"VAULT DE LIGNY","zip":"89200"},{"name":"L'AUBERGE DES RIS","city":"VALLON-EN-SULLY","zip":"03190"},{"name":"LEONIE - BISTRO ET GRILLADES","city":"L'HOSPITALET-DU-LARZAC","zip":"12230"},{"name":"L'ENTREC�TE","city":"TOULOUSE","zip":"31000"},{"name":"LE PETIT KEMBS","city":"KEMBS","zip":"68680"},{"name":"LA MAISON DES TETES","city":"COLMAR","zip":"68000"},{"name":"LE MARSALA","city":"LA FARL�DE","zip":"83210"},{"name":"AUBERGE DU MAIL�","city":"CORMERY","zip":"37320"},{"name":"LA TABLE DES BAUGES","city":"LA BIOLLE","zip":"73410"},{"name":"LOU CANTOUN","city":"CESTAYROLS","zip":"81150"},{"name":"LA BONNE ETAPE","city":"CH�TEAU-ARNOUX SAINT-AUBAN","zip":"04160"},{"name":"GRAND HOTEL DU PARC","city":"FLORAC","zip":"48400"},{"name":"COTEAUX ET FOURCHETTES","city":"CAIRANNE","zip":"84290"},{"name":"Restaurant Les Roseli�res","city":"NOVALAISE","zip":"73470"},{"name":"GALIA par Maxim GODIGNA","city":"PARIS","zip":"75014"},{"name":"Le Bien Aller","city":"","zip":"18700"},{"name":"CHEZ JULIEN","city":"FOUDAY","zip":"67130"},{"name":"LES CAPUCINS","city":"BELFORT","zip":"90000"},{"name":"RESTAURANT CEDRIC GOLA","city":"LA LONDE DES MAURES","zip":"83250"},{"name":"CHANTEFABLE","city":"PARIS","zip":"75020"},{"name":"AUBERGE DE LA LOIRE","city":"MONTJEAN-SUR-LOIRE","zip":"49570"},{"name":"L'ARMOIRE A DELICES","city":"CHERBOURG","zip":"50100"},{"name":"CAP SANTA LUCIA","city":"SAINT-RAPHA�L","zip":"83700"},{"name":"LA CLOSERIE","city":"DIJON","zip":"21000"},{"name":"Hotel & Restaurant Isulella","city":"PORTO-VECCHIO","zip":"20137"},{"name":"Secret des lys","city":"ANCENIS","zip":"44150"},{"name":"AUBERGE DU VIEUX PUITS","city":"FONTJONCOUSE","zip":"11360"},{"name":"LE JAS DU MAS","city":"SAINT-ANTH�ME","zip":"63660"},{"name":"PARFUM POIVRE","city":"GRANVILLE","zip":"50400"},{"name":"Terr�a Safran","city":"N�RIGEAN","zip":"33750"},{"name":"H�TEL LE BAILLIAGE","city":"SALERS","zip":"15140"},{"name":"AUBERGE LE RATELIER","city":"CARNAC","zip":"56340"},{"name":"VELLEDA","city":"COL DU DONON","zip":"67130"},{"name":"RESTAURANT GRANGE","city":"LA TOUR EN MAURIENNE","zip":"73300"},{"name":"L'AUBERGE CIGALOISE","city":"SAINT-HIPPOLYTE-DU-FORT","zip":"30170"},{"name":"LA CAVE","city":"ANNECY","zip":"74000"},{"name":"CHEZ LE P�R'GRAS","city":"LA TRONCHE","zip":"38700"},{"name":"Le baribal","city":"PARIS","zip":"75015"},{"name":"LES ENFANTS TERRIBLES","city":"VILLENEUVE LES BEZIERS","zip":"34420"},{"name":"CAJARC BLUE HOTEL","city":"CAJARC","zip":"46160"},{"name":"RELAIS DE VINCEY","city":"VINCEY","zip":"88450"},{"name":"LE VAL D'AMBY","city":"HI�RES-SUR-AMBY","zip":"38118"},{"name":"Restaurant Le Moulin","city":"ROCHESERVI�RE","zip":"85620"},{"name":"RESTAURANT RATATOUILLE","city":"CASTELNAU-DE-M�DOC","zip":"33480"},{"name":"L'ECU DE France","city":"MALESHERBES","zip":"45330"},{"name":"HOTEL LA SANTA","city":"SANTA-REPARATA-DI-BALAGNA","zip":"20220"},{"name":"RESTAURANT LE VIVIER","city":"PLOEMEUR","zip":"56270"},{"name":"L'HOSTELLERIE DE LA POSTE","city":"CLAMECY","zip":"58500"},{"name":"LE MANOIR DE LA POMMERAIE","city":"ROULLOURS","zip":"14500"},{"name":"Le Duplex","city":"CHAMB�RY","zip":"73000"},{"name":"LOULOU COTE SAUVAGE","city":"LES SABLES-D'OLONNE","zip":"85100"},{"name":"L'AUBERGE DE LA CASCADE","city":"ST CHELY DU TARN","zip":"48210"},{"name":"GAEC DE MASTRIC","city":"LE HOUGA","zip":"32460"},{"name":"LE FLORIMOND","city":"PARIS","zip":"75007"},{"name":"LE MAS DE LA MADELEINE","city":"LARGENTI�RE","zip":"07110"},{"name":"SCEA DES BRESSANS ","city":"COURMANGOUX","zip":"01370"},{"name":"LES CANAILLES MENILMONTANT","city":"PARIS","zip":"75020"},{"name":"LE FATRA","city":"LES SABLES-D'OLONNE","zip":"85100"},{"name":"LE RABELAIS","city":"SAINT-CHAMAS","zip":"13250"},{"name":"L'ARUM","city":"HY�RES","zip":"83400"},{"name":"L'IMP�RIAL","city":"LABOUTARIE","zip":"81120"},{"name":"LES EMBRUNS","city":"SAINT-MALO","zip":"35400"},{"name":"SCEA Ch�teau Jouvente","city":"ILLATS","zip":"33720"},{"name":"LA SALLE A MANGER","city":"CREST","zip":"26400"},{"name":"LA TABLE","city":"TOURTOUR","zip":"83690"},{"name":"le comptoir de pagny","city":"PAGNY-LE-CH�TEAU","zip":"21250"},{"name":"LE FORT DU PRE","city":"SAINT-BONNET-LE-FROID","zip":"43290"},{"name":"brasserie des terreaux","city":"BELLEY","zip":"01300"},{"name":"BRASSERIE BREI'Z","city":"SAINT-BRIEUC","zip":"22000"},{"name":"LE RELAIS DU COCHE","city":"EYGUI�RES","zip":"13430"},{"name":"RESTAURANT AU MENIL","city":"SAVIGNY-SUR-ORGE","zip":"91600"},{"name":"LE QUAI EST","city":"COURSEULLES-SUR-MER","zip":"14470"},{"name":"LA PLAYA","city":"CAPESTERRE-MARIE GALANTE","zip":"97140"},{"name":"� DE MER","city":"ARS-EN-R�","zip":"17590"},{"name":"LE MANSOURIA","city":"PARIS","zip":"75011"},{"name":"LES 3 CAILLOUX","city":"AMIENS","zip":"80000"},{"name":"AU 14 FEVRIER","city":"SAINT-AMOUR-BELLEVUE","zip":"71570"},{"name":"Groupe El�gance H�tels","city":"LE BOIS-PLAGE-EN-R�","zip":"17580"},{"name":"L'ECHO DES MONTAGNES","city":"ARMOY","zip":"74200"},{"name":"Champagne Harlin P�re & Fils","city":"PORT � BINSON","zip":"51700"},{"name":"LE VIEUX FOUR","city":"CH�TEL","zip":"74390"},{"name":"LA MAISON D'A COTE","city":"MONTLIVAULT","zip":"41350"},{"name":"LE JARDIN DU QUAI","city":"L'ISLE-SUR-LA-SORGUE","zip":"84800"},{"name":"MAXIMIN HELLIO","city":"DEAUVILLE","zip":"14800"},{"name":"O CAPRICES DE MATHIAS","city":"SAINT-R�MY-DE-PROVENCE","zip":"13210"},{"name":"Le Ballon Voyageur","city":"MAISONS-LAFFITTE","zip":"78600"},{"name":"L'ALSACIENNE","city":"ANNEMASSE","zip":"74100"},{"name":"LE BISTROT D'HENRY","city":"SAINT-M�LOIR-DES-ONDES","zip":"35350"},{"name":"LE CANTERMERLE","city":"VENCE","zip":"06140"},{"name":"LA BARBINIERE","city":"SAINT-LAURENT-SUR-S�VRE","zip":"85290"},{"name":"LE GRAIN DE FOLIE","city":"BAILLEUL","zip":"59270"},{"name":"WINE BAR - LE CHEVAL BLANC","city":"N�MES","zip":"30000"},{"name":"AUBERGE DU SCHANTZWASEN","city":"STOSSWIHR","zip":"68140"},{"name":"FOURCHE ET FOURCHETTE","city":"LONGUYON","zip":"54260"},{"name":"Domaine Richeaume","city":"PUYLOUBIER","zip":"13114"},{"name":"LE CHEVAL NOIR","city":"HOENHEIM","zip":"67800"},{"name":"LES AMIS DU LAC","city":"HASPELSCHIEDT","zip":"57230"},{"name":"L'�PICURIEN","city":"METZ","zip":"57000"},{"name":"LES MENESTRELS","city":"SAUMUR","zip":"49400"},{"name":"GOXOKI","city":"BAYONNE","zip":"64100"},{"name":"LE PETIT COQ AUX CHAMPS","city":"CAMPIGNY PONT AUDEMER","zip":"27500"},{"name":"LA PETITE AUBERGE","city":"LE HOWALD","zip":"67140"},{"name":"l'escale de lupin","city":"SAINT-NAZAIRE-SUR-CHARENTE","zip":"17780"},{"name":"LA CUISINERIE","city":"LAMBALLE","zip":"22440"},{"name":"champagne christophe hugot","city":"CHAVOT-COURCOURT","zip":"51530"},{"name":"Restaurant L'Impala Des Vignes","city":"CHEVAGNY-LES-CHEVRI�RES","zip":"71960"},{"name":"L'�PICURIEN","city":"ALBI","zip":"81000"},{"name":"LE BEAU RIVAGE","city":"CONDRIEU","zip":"69420"},{"name":"LE BISTROT DES HALLES","city":"LE HAVRE","zip":"76600"},{"name":"MADLOC'H","city":"ERQUY","zip":"22430"},{"name":"LE RELAIS DE SOLOGNE","city":"M�NESTREAU-EN-VILLETTE","zip":"45240"},{"name":"LE RABELAIS","city":"AL�S","zip":"30100"},{"name":"LA FLEUR DE SEL","city":"CEVINS","zip":"73730"},{"name":"LE GAUDI CAFE","city":"GRENOBLE","zip":"38000"},{"name":"COLOMBA","city":"BASTIA","zip":"20200"},{"name":"LA TABLE DE LA ROYA","city":"SAINT-FLORENT","zip":"20217"},{"name":"SARL L'ECOCOTTE","city":"GRENOBLE","zip":"38000"},{"name":"LE TOANE","city":"GR�ZIEU-LA-VARENNE","zip":"69290"},{"name":"le chalet du lac ","city":"VAL DE BRIEY","zip":"54150"},{"name":"RESTAURANT ITHURRIA","city":"AINHOA","zip":"64250"},{"name":"L'AUBERGE DE LA CHARME","city":"PRENOIS","zip":"21370"},{"name":"AU CHEVAL BLANC","city":"FELDBACH","zip":"68640"},{"name":"CHALET DES PRAZ","city":"LA CLUSAZ","zip":"74220"},{"name":"AUBERGE DE L'ARTOIRE","city":"E PERRAY EN YVELINES","zip":"78610"},{"name":"L'AUBERGE FLEURIE","city":"BIEF","zip":"25190"},{"name":"LE VIVARAIS","city":"LYON","zip":"69002"},{"name":"AUBERGE DES MOISSONS","city":"MATOUGUES","zip":"51150"},{"name":"ILOHA SEAVIEW HOTEL","city":"ST LEU","zip":"97436"},{"name":"LA MARMITE","city":"LES BELLEVILLE","zip":"73440"},{"name":"DOMAINE DES SEQUOIAS","city":"RUY","zip":"38300"},{"name":"RESTAURANT �AU RAISIN D'OR�","city":"ZIMMERBACH","zip":"68230"},{"name":"LA TABLE DE GUY","city":"BRON","zip":"69500"},{"name":"L'ANGELICK","city":"LA MURAZ","zip":"74560"},{"name":"RESTAURANT LE DOMAINE DE ROCHEVILAINE","city":"BILLIERS","zip":"56190"},{"name":"GRAND HOTEL DE SOLESMES","city":"SOLESMES","zip":"72300"},{"name":"LE PARVIS","city":"ORANGE","zip":"84100"},{"name":"AUX PIEDS SOUS LA TABLE","city":"TOULOUSE","zip":"31000"},{"name":"AUBERGE DE SAVOIE","city":"ANNECY","zip":"74000"},{"name":"LE TRIANON","city":"MAX�VILLE","zip":"54320"},{"name":"RESTAURANT TERRE ET MER","city":"AURAY","zip":"56400"},{"name":"AUBERGE DU BON LABOUREUR","city":"CHENONCEAUX","zip":"37150"},{"name":"L'ENTRECOTE","city":"BORDEAUX","zip":"33000"},{"name":"A LA TABLE DE NICOLAS","city":"SAINT-R�MY-DE-PROVENCE","zip":"13210"},{"name":"LE RAPHAEL","city":"MO�LAN-SUR-MER","zip":"29350"},{"name":"LE PETIT PRINCE","city":"CABRIS","zip":"06530"},{"name":"LE RIVE GAUCHE","city":"JOIGNY","zip":"89300"},{"name":"DU COT� DE CHEZ FRED","city":"S�TE","zip":"34200"},{"name":"LES AGNEAUX","city":"VILLAR-D'AR�NE","zip":"05480"},{"name":"Le Dix�Vin","city":"CADENET","zip":"84160"},{"name":"RESTAURANT FAMILY","city":"MEYRUEIS","zip":"48150"},{"name":"LE GRANGOUSIER","city":"LES VANS","zip":"07140"},{"name":"BRASSERIE JULLIEN","city":"LYON","zip":"69006"},{"name":"AUBERGE LE MEISENBERG","city":"CH�TENOIS","zip":"67730"},{"name":"RESTAURANT LOTRE","city":"AIX-EN-PROVENCE","zip":"13090"},{"name":"LE MABROUK","city":"MANDELIEU-LA-NAPOULE","zip":"06210"},{"name":"LE PETIT PRINCE DE PARIS","city":"PARIS","zip":"75005"},{"name":"LA COUPE D'OR","city":"LISIEUX","zip":"14100"},{"name":"LA LITOTE","city":"VENCE","zip":"06140"},{"name":"CHEZ MICHEL","city":"PARIS","zip":"75010"},{"name":"ALEXANDRE","city":"GARONS","zip":"30128"},{"name":"SARL Domaine Saint Hilaire","city":"MONTAGNAC","zip":"34530"},{"name":"JOUR DE MARCHE","city":"LYON","zip":"69006"},{"name":"HOTEL-RESTAURANT LES MOUETTES","city":"LARMOR-PLAGE","zip":"56260"},{"name":"AU BOEUF ROUGE","city":"ANDLAU","zip":"67140"},{"name":"RESTAURANT LE PARC","city":"SAINT-HIPPOLYTE","zip":"68590"},{"name":"AU CUL DE POULE","city":"REIMS","zip":"51100"},{"name":"THE PLACE TO","city":"PARIS","zip":"75017"},{"name":"MA BELLE PROVENCE","city":"PARGNY-FILAIN","zip":"02000"},{"name":"AUBERGE DU CHEVAL BLANC","city":"WESTHALEN","zip":"68250"},{"name":"LA VOUTE","city":"MOUTIERS","zip":"73600"},{"name":"L'ATELIER","city":"STRASBOURG","zip":"67000"},{"name":"STUDIO 16","city":"ORL�ANS","zip":"45000"},{"name":"AUBERGE DE L'�LE","city":"L'�LE BOUCHARD","zip":"37220"},{"name":"AU BON ACCUEIL","city":"RICHARDM�NIL","zip":"54630"},{"name":"CHEZ JO","city":"ST JOSEPH","zip":"97480"},{"name":"HOSTELLERIE DE LA BOURIANE","city":"GOURDON","zip":"46300"},{"name":"LA TABLE D'A.S","city":"SURG�RES","zip":"17700"},{"name":"LE P'TIT CAGEOT","city":"ANTIBES","zip":"06600"},{"name":"BODEGA CHEZ GILLES","city":"BAYONNE","zip":"64100"},{"name":"LE MOULIN DE LA PIPE","city":"OMBL�ZE","zip":"26400"},{"name":"CH�TEAU DES LOGES","city":"LE PERREON","zip":"69460"},{"name":"AU VIEUX MOULIN","city":"LAUTERBOURG","zip":"67630"},{"name":"AUBERGE C�T� RIVI�RE","city":"IS-SUR-TILLE","zip":"21120"},{"name":"LE RANCH DES LACS","city":"AUGNE","zip":"87120"},{"name":"LA FORET","city":"SENONCHES","zip":"28250"},{"name":"LA ROMAZIERE","city":"CHALLANS","zip":"85300"},{"name":"L'AYGO","city":"BIZANOS","zip":"64320"},{"name":"RESTAURANT CHOKO ONA","city":"SAINT-JEAN-LE-VIEUX","zip":"64220"},{"name":"AUBERGE DE NOVES","city":"NOVES","zip":"13550"},{"name":"L'ASSIETTE CHAMPENOISE","city":"TINQUEUX","zip":"51430"},{"name":"LE MAZET DU BASILIC","city":"ROQUEBRUNE-SUR-ARGENS","zip":"83520"},{"name":"L'AUBERGE DE LA TANTE ARIE","city":"BLAMONT","zip":"25310"},{"name":"LE MONARQUE","city":"SELONCOURT","zip":"25230"},{"name":"LA PETITE AUBERGE","city":"MALICORNE-SUR-SARTHE","zip":"72270"},{"name":"A TABLE","city":"VAGNEY","zip":"88120"},{"name":"AUX TROIS ROIS","city":"MOOSCH","zip":"68690"},{"name":"RESTAURANT L'ABBAYE","city":"HAUTVILLERS","zip":"51160"},{"name":"LE MANOIR DES PORTES","city":"LAMBALLE","zip":"22400"},{"name":"RESTAURANT CLEMENTINE","city":"PARIS","zip":"75002"},{"name":"CH�TEAU DE BESSEUIL","city":"CLESS�","zip":"71260"},{"name":"LE VIEUX BISTROT","city":"CABRI�RES-D'AVIGNON","zip":"84220"},{"name":"AUBERGE DE LA LOUVI�RE","city":"SEPTMONTS","zip":"02200"},{"name":"LE MALAMOCK II","city":"�LE-TUDY","zip":"29980"},{"name":"restaurant le v","city":"VERSAILLES","zip":"78000"},{"name":"LE DUGUAY TROUIN","city":"LE POULIGUEN","zip":"44510"},{"name":"LE BOUCHON DES HALLES","city":"ROANNE","zip":"42300"},{"name":"Restaurant les Suds Esterel Caravaning","city":"AGAY","zip":"83530"},{"name":"HOTEL RESTAURANT AUX TROIS ROSES","city":"LA PETITE-PIERRE","zip":"67290"},{"name":"L'AUBERGE DU RELAIS","city":"B�RENX","zip":"64300"},{"name":"LA BRASSERIE BORDELAISE","city":"BORDEAUX","zip":"33000"},{"name":"TOURBILLON","city":"HONFLEUR","zip":"14600"},{"name":"LES DIABLES AU THYM","city":"PARIS","zip":"75009"},{"name":"CH�TEAU BELLEVUE","city":"CAZAUBON","zip":"32150"},{"name":"LA TREILLE","city":"VITRAC","zip":"24200"},{"name":"LE SUD","city":"PAU","zip":"64000"},{"name":"H�TEL RESTAURANT DE LA POSTE","city":"CH�TEAUNEUF-DE-RANDON","zip":"48170"},{"name":"AUBERGE DU CHEVAL BLANC","city":"CR�VECOEUR-EN-AUGE","zip":"14340"},{"name":"VIGNOLIS","city":"NYONS","zip":"26110"},{"name":"COMPTOIR DES VOYAGEURS","city":"LOCRONAN","zip":"29180"},{"name":"LA SOURCE DE PEYSSOU","city":"SAINT-AVIT-S�NIEUR","zip":"24440"},{"name":"L'ESCUDELLA","city":"PARIS","zip":"75007"},{"name":"AU CLOCHER","city":"BOURBOURG","zip":"59630"},{"name":"LES MURIERS","city":"ROQUEBRUNE-SUR-ARGENS","zip":"83520"},{"name":"LE BATEAU IVRE","city":"YVOIRE","zip":"74140"},{"name":"LE CLOS DU ROY","city":"SAINT-�MILION","zip":"33330"},{"name":"BON TH� BONHEUR","city":"TOUQUES","zip":"14800"},{"name":"L'ARROSOIR","city":"SAINT-PALAIS-SUR-MER","zip":"17420"},{"name":"LA MAISON","city":"LYON","zip":"69007"},{"name":"Cr�perie Histoire de Cr�pes","city":"LAND�DA","zip":"29870"},{"name":"L'IMAGE SAINTE ANNE","city":"VANNES","zip":"56000"},{"name":"LE MANOIR DALMORE","city":"N�VEZ","zip":"29920"},{"name":"LES COCOTTES NOIRES","city":"JANZ�","zip":"35150"},{"name":"AUBERGE DU TRIEUX","city":"L�ZARDRIEUX","zip":"22740"},{"name":"LES ENFANTS GAT'TH�S","city":"LA GACILLY","zip":"56200"},{"name":"LA TABLE DE BALTHAZAR","city":"RENNES","zip":"35000"},{"name":"LA PERGOLA","city":"L'AIGUILLON-SUR-MER","zip":"85460"},{"name":"Doumb�a","city":"PARIS","zip":"75011"},{"name":"AUBERGE DE PONT CALLECK","city":"INGUINIEL","zip":"56240"},{"name":"LA BONNE AUBERGE","city":"MOUSTIERS-SAINTE-MARIE","zip":"04360"},{"name":"CASTEL BEAU SITE","city":"PERROS-GUIREC","zip":"22700"},{"name":"FLEUR DE SEL","city":"LA FLECHE","zip":"72200"},{"name":"LE COUP DE FOURCHETTE","city":"BREST","zip":"29200"},{"name":"les salons leopold","city":"CERNAY-LA-VILLE","zip":"78720"},{"name":"Les Coqs","city":"MILLY-LA-FOR�T","zip":"91490"},{"name":"LE JEROBOAM","city":"PARIS","zip":"75014"},{"name":"RESTAURANT DE LA POINTE","city":"FOUESNANT","zip":"29170"},{"name":"LE MOULIN DES ECREVISSES","city":"AILLY SOR NOYE","zip":"80250"},{"name":"le gueuleton","city":"REIMS","zip":"51100"},{"name":"Domaine Leblanc - Les Closserons","city":"FAYE-D'ANJOU","zip":"49380"},{"name":"LA COULEUVRINE","city":"SARLAT-LA-CAN�DA","zip":"24200"},{"name":"LES RELAIS D'ALSACE","city":"REZ�","zip":"44400"},{"name":"LE PONT BLEU","city":"SAINT-PAIR-SUR-MER","zip":"50380"},{"name":"LE PETIT BOUCHON","city":"SAIGNON","zip":"84400"},{"name":"L'Oh � la Bouche !","city":"AURILLAC","zip":"15000"},{"name":"LA CHARTREUSE DE BIGNAC","city":"SAINT-NEXANS","zip":"24520"},{"name":"restaurant le sound , hotel de la baie","city":"DONVILLE-LES-BAINS","zip":"50350"},{"name":"LA BRASSERIE DU SILLON","city":"SAINT-MALO","zip":"35400"},{"name":"CH�TEAU D'HADOMENIL","city":"REHAINVILLER","zip":"54300"},{"name":"LA SUITE","city":"LA ROCHELLE","zip":"17000"},{"name":"LE COZY","city":"PLAISIR","zip":"78370"},{"name":"HOTEL DU LAC - RESTAURANT LE COCON","city":"SAINT-PRIEST","zip":"69800"},{"name":"LE PECHE MIGNON","city":"SAINT-L�","zip":"50000"},{"name":"LE CAP","city":"BARNEVILLE-CARTERET","zip":"50270"},{"name":"LA CIVELLE","city":"REZ�","zip":"44400"},{"name":"auberge des carri�res","city":"TAILLADES","zip":"84300"},{"name":"LE PESCADOU","city":"GASSIN","zip":"83580"},{"name":"LA CROIX VERTE","city":"BAIN-DE-BRETAGNE","zip":"35470"},{"name":"AU LARD ET AU COCHON","city":"CARCASSONNE","zip":"11000"},{"name":"LE BIVOUAC","city":"PARIS","zip":"75008"},{"name":"LA GRILLANDINE","city":"SAINT-NAZAIRE","zip":"44600"},{"name":"HOSTELLERIE SAINT MARTIN","city":"CREULLY","zip":"14480"},{"name":"Restaurant l'AUBERGINE","city":"SAINT ANNE D'AURAY","zip":"56400"},{"name":"LE BOUCHON BIARROT","city":"BIARRITZ","zip":"64200"},{"name":"AU FIL DES SAISONS","city":"CERGY","zip":"95000"},{"name":"HOSTELLERIE DU BEFFROY","city":"BESSE ET ST ANASTASIE","zip":"63610"},{"name":"RESTAURANT DU MOUTON","city":"RIBEAUVILL�","zip":"68150"},{"name":"LE BOUCHE � OREILLE","city":"SIMORRE","zip":"32420"},{"name":"L'AMER","city":"DESHAIES","zip":""},{"name":"Table & Partage","city":"LYON","zip":"69003"},{"name":"H�TEL-RESTAURANT LA RENAISSANCE","city":"LE LUDE","zip":"72800"},{"name":"LE BOUCHE B","city":"LYON","zip":"69007"},{"name":"BISTROT DU COIN","city":"DOUSSARD","zip":"74210"},{"name":"RESTAURANT DI QUI E DI LA","city":"G�MENOS","zip":"13420"},{"name":"LA NOUVELLE AUBERGE","city":"WIHR-AU-VAL","zip":"68230"},{"name":"BISTROT DE CHARENTON","city":"CHARENTON-LE-PONT","zip":"94220"},{"name":"ECLUSE 16","city":"ALTWILLER","zip":"67260"},{"name":"LES D�LICES DE LA ROCHE","city":"LOURESSE-ROCHEMENIER","zip":"49700"},{"name":"RESTAURANT KRUYS STRAETE","city":"WORMHOUT","zip":"59470"},{"name":"LE VIEUX GACHET","city":"CARQUEFOU","zip":"44470"},{"name":"AU PAS DE L'ALPETTE","city":"CHAPAREILLAN","zip":"38530"},{"name":"BRASSERIE JULES","city":"AMIENS","zip":"80000"},{"name":"AU GARDE MANGER","city":"BAZOUGES CRE SUR LOIR","zip":"72200"},{"name":"Restaurant Paulus","city":"STRASBOURG","zip":"67000"},{"name":"L'ABBAYE DE VILLENEUVE","city":"LES SORINIERES","zip":"44840"},{"name":"LI VIGNI RISTORANTE PIZZERIA","city":"LYON","zip":"69003"},{"name":"RESTAURANT KOIFHUS","city":"COLMAR","zip":"68000"},{"name":"LE COMPTOIR GALI","city":"PORNIC","zip":"44210"},{"name":"HOTEL U CAPU BIANCU","city":"BONIFACIO","zip":"20169"},{"name":"RESTAURANT LE TREMPLIN","city":"MORZINE","zip":"74110"},{"name":"L'EMBARCADERE","city":"JASSANS-RIOTTIER","zip":"01480"},{"name":"LA TABLE DES BAOUS","city":"SAINT-JEANNET","zip":"06640"},{"name":"RESTAURANT LLORCA","city":"LA COLLE-SUR-LOUP","zip":"06480"},{"name":"LE REGENCE","city":"APPRIEU","zip":"38140"},{"name":"LE GRAIN DE SABLE","city":"CH�TELAILLON-PLAGE","zip":"17340"},{"name":"LOISEAU RIVE GAUCHE","city":"PARIS","zip":"75007"},{"name":"DIEGO PLAGE L'ECAILLER","city":"ARCACHON","zip":"33120"},{"name":"L'EYRE 2 RIEN","city":"SALLES","zip":"33770"},{"name":"CHEZ LAURENT","city":"LE LAVANDOU","zip":"83980"},{"name":"LE BRETAGNE MAISON LORIN","city":"NORT-SUR-ERDRE","zip":"44390"},{"name":"LA CLE DES CHAMPS","city":"MONTM�LIAN","zip":"73800"},{"name":"RIVIERA III","city":"SIX-FOURS-LES-PLAGES","zip":"83140"},{"name":"LA BELLE VITA","city":"VAULX-EN-VELIN","zip":"69120"},{"name":"DOMAINE DU LOUP DES VIGNES","city":"SAINT-SAVIN","zip":"38300"},{"name":"L'ENTRECOTE","city":"NANTES","zip":"44000"},{"name":"AUBERGE LUCAS","city":"CARDROC","zip":"35190"},{"name":"LES CLOSEAUX","city":"VALLI�RES-LES-GRANDES","zip":"41400"},{"name":"LE PERCOLATEUR","city":"PARIS","zip":"75008"},{"name":"L'ESCAPADE","city":"CASTELLANE","zip":"04120"},{"name":"RESTAURANT GRAND H�TEL DE PARIS","city":"VILLARD-DE-LANS","zip":"38250"},{"name":"LE PRE DE LA CURE","city":"YVOIRE","zip":"74140"},{"name":"LE CEDRE","city":"PORT-VENDRES","zip":"66660"},{"name":"BAYA HOTEL ET SPA","city":"CAPBRETON","zip":"40130"},{"name":"LE B� M","city":"MONTAUROUX","zip":"83440"},{"name":"BRASSERIE MOLLARD","city":"PARIS","zip":"75008"},{"name":"L'OLIVE VERTE","city":"GISORS","zip":"27140"},{"name":"LA ROTONDE","city":"LA TOUR-DE-SALVAGNY","zip":"69890"},{"name":"L'AUBERGE DU MANET","city":"MONTIGNY-LE-BRETONNEUX","zip":"78180"},{"name":"LE CLOS DES SUREAUX","city":"SEUR","zip":"41120"},{"name":"LE TRANSAT","city":"SAINT-NAZAIRE","zip":"44600"},{"name":"H�TEL DE FRANCE","city":"CAMARET","zip":"29570"},{"name":"RESTAURANT DE LA POSTE","city":"SAINT-L�ON-SUR-V�Z�RE","zip":"24290"},{"name":"8 BAKERY","city":"NICE","zip":"06300"},{"name":"CAF� DE PARIS","city":"CHERBOURG-OCTEVILLE","zip":"50100"},{"name":"AUX SAVEURS DU THURTAL","city":"BITSCHWILLER-L�S-THANN","zip":"68620"},{"name":"LE SORGIA","city":"LANCRANS","zip":"01200"},{"name":"LES FRERES MARCHAND","city":"NANCY","zip":"54000"},{"name":"HOTEL DE LA GARE","city":"AMBERT","zip":"63600"},{"name":"H�TEL-RESTAURANT R�GIS ET JACQUES MARCON","city":"SAINT-BONNET-LE-FROID","zip":"43290"},{"name":"JEAN'S CAFE","city":"LE TOUQUET","zip":"62520"},{"name":"kookabarra","city":"CAVAILLON","zip":"84300"},{"name":"HOTEL AIGLE DES NEIGES","city":"VAL-D'IS�RE","zip":"73150"},{"name":"TAHITI BEACH CAFE","city":"AJACCIO","zip":"20090"},{"name":"RESTAURANT LESAGE","city":"SARZEAU","zip":"56370"},{"name":"O plaisir des sens","city":"ROQUE GAGEAC","zip":"24250"},{"name":"L'ARAZUR","city":"ANTIBES","zip":"06600"},{"name":"LE REMPART","city":"TOURNUS","zip":"71700"},{"name":"LE VAL MORET","city":"MAGNANT","zip":"10110"},{"name":"COMPTOIR SAINT SEBASTIEN","city":"NEVERS","zip":"58000"},{"name":"LE RELAIS D�LYS","city":"SAINT-R�MY-SUR-DUROLLE","zip":"63550"},{"name":"Bistro les 2 mules","city":"LA CLUSAZ","zip":"74220"},{"name":"LE VEAU D'OR - MAISON MARSOLLIER","city":"CH�TEAU-GONTIER","zip":"53200"},{"name":"RESTAURANT LA GLOIRE","city":"MONTARGIS","zip":"45200"},{"name":"AU JARDIN DES SAVEURS","city":"LAVENAY","zip":"72310"},{"name":"RESTAURANT STEPHANE MARTIN","city":"PARIS","zip":"75015"},{"name":"L'AUBERGE DE SAINTE MAURE","city":"TROYES","zip":"10150"},{"name":"LES SOURCES DU MOULIN","city":"MIGR�","zip":"17330"},{"name":"AUBERGE DU CENTRE","city":"CHITENAY","zip":"41120"},{"name":"CHEZ MARTI","city":"SAINT-GERMAIN","zip":"07170"},{"name":"RESTAURANT LA MARJOLAINE","city":"B�ZIERS","zip":"34500"},{"name":"STEEL PAN","city":"FORT DE FRANCE","zip":"97200"},{"name":"LA FLIBUSTE","city":"VILLENEUVE-LOUBET","zip":"06270"},{"name":"HOTEL-RESTAURANT LES 3 BARBUS","city":"G�N�RARGUES","zip":"30140"},{"name":"L'ABSOLU","city":"AUROS","zip":"33124"},{"name":"EARL ROCHET","city":"LA REOLE","zip":"33190"},{"name":"DOMAINE DU HAUT JARDIN","city":"REHAUPAL","zip":"88640"},{"name":"GALLERY 412","city":"DIJON","zip":"21000"},{"name":"AUBERGE DE LA PETITE REINE","city":"SIORAC-EN-P�RIGORD","zip":"24170"},{"name":"CASTEL DAMANDRE","city":"LES PLANCHES-PR�S-ARBOIS","zip":"39600"},{"name":"LE PHEBUS","city":"JOUCAS","zip":"84220"},{"name":"La Primatiale","city":"NANCY","zip":"54000"},{"name":"sca qualisol","city":"CASTELSARRASIN","zip":"82102"},{"name":"LA VILLA DES HOUX","city":"AUMALE","zip":"76390"},{"name":"Restaurant O'33","city":"NISSAN LEZ ENSERUNE","zip":"34440"},{"name":"CHATEAU DE RIGNY","city":"RIGNY","zip":"70100"},{"name":"LE MAZERAND","city":"LATTES","zip":"34970"},{"name":"L'EMBELLIE","city":"SAINTE-C�CILE","zip":"71250"},{"name":"L'ATELIER DU PARC","city":"PARIS","zip":"75015"},{"name":"L'ARDOISE DU MARCHE","city":"BOULLERET","zip":"18240"},{"name":"scea jean medeville et fils","city":"CADILLAC","zip":"33410"},{"name":"sas maison perrin","city":"ANTIBES","zip":"06600"},{"name":"HOTEL DU PETIT KOHLBERG","city":"LUCELLE","zip":"68480"},{"name":"FERME DE LA BESSE","city":"USCLADES-ET-RIEUTORD","zip":"07510"},{"name":"LA TABLE DU MAS DES ECUREUILS","city":"AIX-EN-PROVENCE","zip":"13090"},{"name":"LE  GAUDISSART","city":"BARCELONNETTE","zip":"04400"},{"name":"LA SOLOGNOTE","city":"BRINON-SUR-SAULDRE","zip":"18410"},{"name":"LES PISSENLITS","city":"NANCY","zip":"54000"},{"name":"LES COLONNES","city":"VANDOEUVRE-L�S-NANCY","zip":"54500"},{"name":"JEHAN DE VALON","city":"ROCAMADOUR","zip":"46500"},{"name":"BELLAGIO","city":"PARIS","zip":"75017"},{"name":"LE BALLON DES TERNES","city":"PARIS","zip":"75017"},{"name":"LE BOEUF MAILLOT","city":"PARIS","zip":"75017"},{"name":"PAVILLON DE LA GRANDE CASCADE","city":"PARIS","zip":"75016"},{"name":"ANSE MARCEL BEACH","city":"ST MARTIN","zip":"97150"},{"name":"LE GRAND MONARQUE","city":"DONZY","zip":"58220"},{"name":"LES QUATRE SALINES","city":"ROZ-SUR-COUESNON","zip":"35610"},{"name":"RESTAURANT DIDIER M�RIL","city":"DINARD","zip":"35800"},{"name":"AUBERGE DU CEP","city":"FLEURIE","zip":"69820"},{"name":"LES EPICES CURIENS","city":"�COUVIEZ","zip":"55600"},{"name":"COMTE ROGER","city":"CARCASSONNE","zip":"11000"},{"name":"Les Jardins du Capitole","city":"NICE","zip":"06000"},{"name":"LES ARCADES","city":"LES SAISIES","zip":"73620"},{"name":"LE GOLDERT","city":"GUEBERSCWIHR","zip":"68420"},{"name":"LA PIERRE BLEUE","city":"NOZAY","zip":"44170"},{"name":"S'WACKE HIESEL","city":"STRASBOURG","zip":"67000"},{"name":"LE MEURIN","city":"BUSNES","zip":"62350"},{"name":"L'ATELIER DE MARC MEURIN","city":"LENS","zip":"62300"},{"name":"AUBERGE DES 4 VENTS","city":"LAXOU","zip":"54520"},{"name":"AU VIEUX PRESSOIR","city":"WESTHALEN","zip":"68250"},{"name":"AU VIEUX CHALET","city":"THYEZ","zip":"74300"},{"name":"Naz�re la table","city":"AVEZAN","zip":"32380"},{"name":"GRAND HOTEL DE LA PLAGE","city":"BISCAROSSE","zip":"40600"},{"name":"CLOS DEAUVILLE SAINT GATIEN","city":"SAINT-G�TIEN-DES-BOIS","zip":"14130"},{"name":"CHEZ MICHEL","city":"CASTAGNIERS","zip":"06670"},{"name":"LE CENTRE BY GEORGES","city":"LYON","zip":"69002"},{"name":"RESTAURANT ORIGINES","city":"NICE","zip":"06000"},{"name":"LE SAINT GERMAIN","city":"P�ZENAS","zip":"34120"},{"name":"A FLEUR DE SEL","city":"SAINTES-MARIES-DE-LA-MER","zip":"13460"},{"name":"RESTAURANT CHABERT ET FILS","city":"LYON","zip":"69002"},{"name":"AUX TROIS COCHONS","city":"LYON","zip":"69002"},{"name":"LA FERME DES CHARRIERES","city":"HERBEYS","zip":"38320"},{"name":"RESTAURANT LE TREVISE","city":"SCEAUX","zip":"92330"},{"name":"LA R�SERVE","city":"LE BOSC","zip":"34700"},{"name":"LA GRANDE POSTE","city":"BORDEAUX","zip":"33000"},{"name":"COTE SAVEURS","city":"CHARLIEU","zip":"42190"},{"name":"VILLA DES BORDES","city":"CL�RY-SAINT-ANDR�","zip":"45370"},{"name":"SUD HOTEL","city":"HUTTENHEIM","zip":"67230"},{"name":"L'ISLANDAIS","city":"PAIMPOL","zip":"22500"},{"name":"LA TAVERNE DE LA MARINE","city":"RENNES","zip":"35000"},{"name":"LE JARDIN","city":"ISSOIRE","zip":"63500"},{"name":"LA TABLE DE SANDORINE","city":"RETHEL","zip":"08300"},{"name":"LA CAVERNE","city":"GR�OUX-LES-BAINS","zip":"04800"},{"name":"Huilerie Beaujolaise","city":"LES ARDILLATS","zip":"69430"},{"name":"L'AMBASSADE","city":"LIMOGES","zip":"87000"},{"name":"AUBERGE DE BAUDEMONT","city":"BAUDEMONT","zip":"71800"},{"name":"L'AROME","city":"BALARIC LES BAINS","zip":"34540"},{"name":"LES EMBRUNS","city":"SAINT-MARTIN-DE-R�","zip":"17410"},{"name":"LE ROUGET NOIR","city":"SAINT-QUENTIN","zip":"02100"},{"name":"LES PITCHOUNS","city":"MONTARGIS","zip":"45200"},{"name":"RESTAURANT BAUD","city":"BONNE","zip":"74380"},{"name":"VOYAGES DES SENS","city":"VALREVERMONT","zip":"01370"},{"name":"OH TERROIR","city":"MONTARGIS","zip":"45200"},{"name":"LE 1837 VICTOR HUGO","city":"AULT","zip":"80460"},{"name":"DOMAINE DE CIC� BLOSSAC","city":"BRUZ","zip":"35170"},{"name":"Auberge des Baronnies","city":"L'�PINE","zip":"05700"},{"name":"LE FIGUIER DE SAINT ESPRIT","city":"ANTIBES","zip":"06600"},{"name":"L'ANA'GRAM","city":"PORNIC","zip":"44210"},{"name":"LE GRENIER � SEL","city":"MONTLU�ON","zip":"03100"},{"name":"L'AIGLON","city":"PONTIVY","zip":"56300"},{"name":"BISTRO D'ANTAN","city":"BRUGES","zip":"33520"},{"name":"LE 1741","city":"STRASBOURG","zip":"67000"},{"name":"DELICATESSENS","city":"MILHAC","zip":"46300"},{"name":"HOTEL CHALET MOUNIER","city":"LES DEUX ALPES","zip":"38860"},{"name":"LA TABLE DU BOISNIARD","city":"CHAMBRETAUD","zip":"85500"},{"name":"CHEZ FRAN�OISE","city":"PARIS","zip":"75007"},{"name":"AU PETIT MARGUERY","city":"PARIS","zip":"75013"},{"name":"LA TABLE D'AUR�","city":"CHAMOUSSET","zip":"73390"},{"name":"LA FOURCHETTE DU PRINTEMPS","city":"PARIS","zip":"75017"},{"name":"L'ARDOISE","city":"LE PUY-EN-VELAY","zip":"43000"},{"name":"L'ARCHESTRATE","city":"SAINT-DIZIER","zip":"52100"},{"name":"AU BORD DE L'EAU","city":"D�CINES-CHARPIEU","zip":"69150"},{"name":"GRAND HOTEL PELISSON","city":"NONTRON","zip":"24300"},{"name":"MULLER","city":"NIEDERBRONN-LES-BAINS","zip":"67110"},{"name":"LE BERNON","city":"CONNAUX","zip":"30330"},{"name":"LES JARDINS DE LA CLOCHE","city":"DIJON","zip":"21000"},{"name":"AU BON VIVRE","city":"TERRE DE HAUT","zip":"97137"},{"name":"LA MAISON DANS LE PARC","city":"NANCY","zip":"54000"},{"name":"LE SAVOYARD","city":"CHAMB�RY","zip":"73000"},{"name":"LA TABLE DU DONJON","city":"OINGT","zip":"69620"},{"name":"CHALET LA SOURCE","city":"SAINT-NICOLAS-LA-CHAPELLE","zip":"73590"},{"name":"LA MAISON DE NANY","city":"JOYEUSE","zip":"07260"},{"name":"L'Effet Maison","city":"MONFLANQUIN","zip":"47150"},{"name":"LE CHAMBARD","city":"KAYSENBERG","zip":"68560"},{"name":"LE DIT VIN","city":"SAINT-AYGULF","zip":"83370"},{"name":"Auberge de Meyrals","city":"MEYRALS","zip":"24220"},{"name":"AUBERGE PYR�N�ES C�VENNES","city":"PARIS","zip":"75011"},{"name":"LE GRENADIN","city":"BELLEU","zip":"02200"},{"name":"cuisine en cours","city":"LYON","zip":"69003"},{"name":"LES SAVEURS SAUVAGES","city":"GIF-SUR-YVETTE","zip":"91190"},{"name":"LA MAISON FORESTIERE","city":"LES ESTABLES","zip":"43150"},{"name":"Le Bourguignon","city":"B�ZE","zip":"21310"},{"name":"HOTEL DUGUESCLIN","city":"LE MONT ST MICHEL","zip":"50170"},{"name":"Chez Lucien - Bistrotier","city":"LYON","zip":"69004"},{"name":"EVI EVANE","city":"PARIS","zip":"75006"},{"name":"LA TOQUE BLANCHE","city":"B�NESTROFF","zip":"57670"},{"name":"LE MILLESIME","city":"NICE","zip":"06300"},{"name":"LA ZYGOTHEQUE","city":"PARIS","zip":"75013"},{"name":"AU CAVEAU DE L'�TABLE","city":"NIEDERBRONN-LES-BAINS","zip":"67110"},{"name":"LA VILLA ARCHANGE","city":"LE CANNET","zip":"06110"},{"name":"RESTAURANT DE LA FOR�T","city":"VAL DE MODER","zip":"67350"},{"name":"Le Baragnas","city":"SAINT-SIFFRET","zip":"30700"},{"name":"LE MAGNY","city":"LES RICEYS","zip":"10340"},{"name":"DOMAINE DE LA TORTINIERE","city":"VEIGN�","zip":"37250"},{"name":"LE RETZ","city":"PORNIC","zip":"44210"},{"name":"Earl Champagne Fredestel","city":"TR�PAIL","zip":"51380"},{"name":"LE PONT BERNET","city":"PIAN MEDOC","zip":"33290"},{"name":"L'AMBASSADE","city":"B�ZIERS","zip":"34500"},{"name":"H�TEL DE FRANCE","city":"MONTMARAULT","zip":"03390"},{"name":"LE CHAMARLENC","city":"LE PUY-EN-VELAY","zip":"43000"},{"name":"met caf�","city":"BASTIA","zip":"20200"},{"name":"Les cocottes d'H�l�ne","city":"COUPVRAY","zip":"77700"},{"name":"l�oustal","city":"VILLENEUVE-SUR-LOT","zip":"47300"},{"name":"AUBERGE DE LA ROCHE","city":"MARSAC-SUR-DON","zip":"44170"},{"name":"RESTAURANT DE LA MAISON DE PAYS","city":"CHALAIS","zip":"86200"},{"name":"L'AROME","city":"BONNIEUX","zip":"84480"},{"name":"LE RELAIS DE L'AUBRAC","city":"RECOULES-D'AUBRAC","zip":"48260"},{"name":"LE BOEUF A LA MODE","city":"VERSAILLES","zip":"78000"},{"name":"l'ethym'sel","city":"M�CON","zip":"71000"},{"name":"CAFE TELLINE","city":"PORT GRIMAUD","zip":"83310"},{"name":"LE BISTRO DU MUSEE","city":"BORDEAUX","zip":"33000"},{"name":"A LA PINCEE DE SEL","city":"GU�RANDE","zip":"44350"},{"name":"L'ENTRE NOUS","city":"CH�TEAUROUX","zip":"36000"},{"name":"LE CHEVERNY","city":"LIMOGES","zip":"87000"},{"name":"BISTRO CANAILLES","city":"ANNECY","zip":"74000"},{"name":"CHEZ HUGUETTE","city":"BASTIA","zip":"20200"},{"name":"La Vacherie","city":"NANTES","zip":"44300"},{"name":"LE GAULOIS","city":"BARTENHEIM","zip":"68870"},{"name":"HOTEL RESTAURANT DU PONT D'ABENSE","city":"ABENSE DE HAUT","zip":"64470"},{"name":"RESTAURANT CUGINI","city":"JONAGE","zip":"69330"},{"name":"LES BAINS DE SECOURS","city":"S�VIGNACQ-MEYRACQ","zip":"64260"},{"name":"L'ANIS ETOILE","city":"NICE","zip":"06000"},{"name":"EARL LA PERLE DE LA BAIE","city":"BLAINVILLE-SUR-MER","zip":"50560"},{"name":"LE BISTRONOME","city":"SAINT-HILAIRE-DE-LOULAY","zip":"85600"},{"name":"L'AUBERGE DU MOULIN","city":"PLOBSHEIM","zip":"67115"},{"name":"La corbeille fleurie","city":"LIERGUES","zip":"69400"},{"name":"LE NEPTUNE","city":"PAIMPOL","zip":"22500"},{"name":"LA VILLA","city":"REIMS","zip":"51100"},{"name":"RESTAURANT FURANA","city":"PORTO-VECCHIO","zip":"20137"},{"name":"AUBERGE LA FONTAINE AUX BRETONS","city":"PORNIC","zip":"44210"},{"name":"CAFE DE LA GARE","city":"CHARNAY-L�S-M�CON","zip":"71850"},{"name":"HOTEL WINDSOR","city":"NICE","zip":"06000"},{"name":"LE PECOITZ","city":"AINCILLE","zip":"64220"},{"name":"AUBERGE DE CONTREVOZ","city":"CONTREVOZ","zip":"01300"},{"name":"SIGNAL 2108","city":"ALPE D'HUEZ","zip":"38750"},{"name":"619","city":"SAINT-FRAN�OIS","zip":"97118"},{"name":"CAFE DU PEINTRE","city":"LYON","zip":"69006"},{"name":"La Touna","city":"BOUILLANTE","zip":"97125"},{"name":"LES BARTAVELLES","city":"CROTS","zip":"05200"},{"name":"LES BRISANTS","city":"BRETIGNOLLES-SUR-MER","zip":"85470"},{"name":"LE MAS DU LANGOUSTIER","city":"ILE DE PORQUEROLLES","zip":"83400"},{"name":"L'AMBROISIE","city":"M�CON","zip":"71000"},{"name":"LA CRECHE","city":"LA CHOMETTE","zip":"43230"},{"name":"CAFE DES ANGES","city":"LYON","zip":"69006"},{"name":"LE POISSON ROUGE","city":"LA BARRE-DE-MONTS","zip":"85550"},{"name":"Les F�es M�res","city":"LE MONT DORE","zip":"63240"},{"name":"la Table du Martin Bel Air","city":"SAINT-MARTIN-DU-TERTRE","zip":"89100"},{"name":"RESTAURANT DE L'AIN","city":"PONT-DE-POITTE","zip":"39130"},{"name":"L'ARTIMON","city":"PALAVAS-LES-FLOTS","zip":"34250"},{"name":"LE CINTRA","city":"MEG�VE","zip":"74120"},{"name":"LE CLOS DES SENS","city":"ANNECY-LE-VIEUX","zip":"74940"},{"name":"CASTEL DE TRES GIRARD","city":"MOREY-SAINT-DENIS","zip":"21220"},{"name":"LA FERIA","city":"GUJAN-MESTRAS","zip":"33470"},{"name":"SUCRE SALE","city":"POINTE A PITRE","zip":"97110"},{"name":"HOSTELLERIE DU CH�TEAU DE PRAY","city":"CHARG�","zip":"37530"},{"name":"H�TEL LE PROVENCE","city":"LANARCE","zip":"07660"},{"name":"RESTAURANT LE CERF","city":"MARLENHEIM","zip":"67520"},{"name":"DOMAINE PIALLAT","city":"MONTBRISON SUR LEZ","zip":"26770"},{"name":"HOTEL DE LA PLAGE","city":"SAINT-PIERRE-QUIBERON","zip":"56510"},{"name":"RESTAURANT LES CERISIERS - HOTEL AMELIE","city":"BRIDES-LES-BAINS","zip":"73570"},{"name":"RESTAURANT ORSI PIERRE","city":"LYON","zip":"69006"},{"name":"LA RASCASSE","city":"HY�RES","zip":"83400"},{"name":"LA GRENOUILLERE","city":"SAINT-JEAN-D'ARVES","zip":"73530"},{"name":"L'O A LA BOUCHE","city":"BESAN�ON","zip":"25000"},{"name":"RESTAURANT LA PETITE AUBERGE","city":"USTARITZ","zip":"64480"},{"name":"Restaurant Mon Plaisir","city":"CHAMESOL","zip":"25190"},{"name":"RESTAURANT LES PINS","city":"SILLANS-LA-CASCADE","zip":"83690"},{"name":"LE BISTROT TOCQUEVILLE","city":"PARIS","zip":"75017"},{"name":"A DEUX PAS D'ICI","city":"LE HAVRE","zip":"76600"},{"name":"Miosca","city":"CLICHY","zip":"92110"},{"name":"L'AUBERGE DU BOUGNAT","city":"SAINT-VICTOR-LA-RIVI�RE","zip":"63790"},{"name":"CLUB DES PALMIERS","city":"RAMATUELLE","zip":"83350"},{"name":"LA TRAMONTANA","city":"LILLE","zip":"59000"},{"name":"LE QUART DE CERCLE","city":"MEYTHET","zip":"74960"},{"name":"CHEZ PLANES","city":"SAILLAGOUSE","zip":"66800"},{"name":"LES CYGNES CHEZ JULES","city":"MARGENCEL","zip":"74200"},{"name":"L'�TREMENT","city":"SCIEZ SUR LEMAN","zip":"74140"},{"name":"LA PETITE AUBERGE","city":"SAINT-JEAN-D'ASS�","zip":"72380"},{"name":"L'INSTANT GOURMET","city":"VALBONNE","zip":"06560"},{"name":"MANOIR D'ACHERIE","city":"SAINTE-C�CILE","zip":"50800"},{"name":"AUBERGE DU PARC","city":"HAUTEFORT","zip":"24390"},{"name":"LE POINT DU JOUR","city":"LA ROCHE-SUR-YON","zip":"85006"},{"name":"LE MORMAL","city":"JOLIMETZ","zip":"59530"},{"name":"LA SCIERIE","city":"LA CLUSAZ","zip":"74220"},{"name":"LE PATIO","city":"B�ZIERS","zip":"34500"},{"name":"SARLLA PYRAMIDE DES SAVEURS - LE FORT","city":"MONTAUBAN","zip":"82000"},{"name":"CH�TEAU COLBERT","city":"MAUL�VRIER","zip":"49360"},{"name":"L'ERMITAGE","city":"SAULGES","zip":"53340"},{"name":"A LA TRUITE","city":"ILLHAEUSERN","zip":"68970"},{"name":"AUBERGE DE LA FOR�T","city":"LE GAVRE","zip":"44130"},{"name":"A L'ARDOISE","city":"SAINT-HILAIRE-DU-HARCOU�T","zip":"50600"},{"name":"LES CHAIS D'HAUSSMANN","city":"CESTAS","zip":"33610"},{"name":"LE COLVERT","city":"FRESNAY-EN-RETZ","zip":"44580"},{"name":"LA LAPINIERE","city":"COLOMBIERS","zip":"34440"},{"name":"Le Z�bre Vert","city":"BORMES LES MIMOSAS","zip":"83230"},{"name":"Champagne Pri� ","city":"NEUVILLE-SUR-SEINE","zip":"10250"},{"name":"LES SAVEURS DE NICOLAS","city":"NOUVOITOU","zip":"35410"},{"name":"ASSIETTE DU MARCH�","city":"LILLE","zip":"59000"},{"name":"LE DAUPHIN","city":"CAEN","zip":"14000"},{"name":"LA VAGUE DE SAINT PAUL","city":"ST PAUL DE VENCE","zip":"06570"},{"name":"LA BRECHE DE ROLAND","city":"G�DRE","zip":"65120"},{"name":"RESTAURANT CHRISTIAN QUENEL","city":"FLAGEY-ECH�ZEAUX","zip":"21640"},{"name":"LA MANNE","city":"MARSEILLE","zip":"13001"},{"name":"DOMAINE DE L'ADOUX","city":"MONTCLAR","zip":"04140"},{"name":"LE GRILL","city":"AJACCIO","zip":"20090"},{"name":"CARRE DES GOURMETS","city":"SAINT-ANTONIN-NOBLE-VAL","zip":"82140"},{"name":"LA TABLE DU MARAIS","city":"LA FRESNAIS","zip":"35111"},{"name":"LA TABLE DES CHEVALIERS","city":"HAGUENAU","zip":"67500"},{"name":"LE CAVEAU","city":"CUMI�RES","zip":"51480"},{"name":"RESTAURANT OH BOUCHOUX","city":"SAINT-ANDR�-LE-BOUCHOUX","zip":"01240"},{"name":"EL THEATRIS","city":"METZ","zip":"57000"},{"name":"LA POURPRE ET LES OLIVIERS","city":"SAINT-JEAN-DE-FOS","zip":"34150"},{"name":"LE RICHE BY S�BASTIEN RATH","city":"AL�S","zip":"30100"},{"name":"LES SEPT MERS","city":"SAINT-MALO","zip":"35400"},{"name":"LA ROSE TREMIERE","city":"SAINT-MICHEL-EN-L'HERM","zip":"85580"},{"name":"AUBERGE DU ROHAN","city":"MEUCON","zip":"56890"},{"name":"VILLA BORGH�SE","city":"GR�OUX-LES-BAINS","zip":"04800"},{"name":"restaurant La Saulire","city":"COURCHEVEL","zip":"73120"},{"name":"HOSTELLERIE DE LA GABELLE","city":"SAINT-FLORENT-LE-VIEIL","zip":"49410"},{"name":"Auberge aux deux clefs","city":"MERTZWILLER","zip":"67580"},{"name":"O PERVENCHES","city":"CHAMB�RY","zip":"73000"},{"name":"AUBERGE SAINT THIBAULT","city":"SAINT-SATUR","zip":"18300"},{"name":"HOTEL RESTAURANT REMOTEL","city":"KNUTANGE","zip":"57240"},{"name":"LE GRAND H�TEL & SPA","city":"G�RARDMER","zip":"88400"},{"name":"BOUCHON PALAIS GRILLET","city":"LYON","zip":"69002"},{"name":"RENAUDMETS","city":"L'ISLE SUR SORGUE","zip":"84800"},{"name":"LES JARDINS DE VILLENNES","city":"VILLENNES-SUR-SEINE","zip":"78670"},{"name":"L��CHAPP�E BELLE","city":"BEAUVALLON","zip":"26800"},{"name":"LE BISTROT A GILLES","city":"NANTES","zip":"44000"},{"name":"LES SARMENTS","city":"REIMS","zip":"51100"},{"name":"Restaurant l\\'Absinthe","city":"SAINT-MALO","zip":"35400"},{"name":"Restaurant LA SUITE...","city":"ALEN�ON","zip":"61000"},{"name":"LE POTAGER DU MAS","city":"ORGON","zip":"13660"},{"name":"CHEZ TANIA","city":"LA CIOTAT","zip":"13600"},{"name":"LA TABLE DE LEO","city":"SAINT-AVIT-S�NIEUR","zip":"24440"},{"name":"AUBERGE DE ST REMY - Restaurant Fanny REY","city":"SAINT-R�MY-DE-PROVENCE","zip":"13210"},{"name":"restaurant la clef des champs","city":"SAINT-BLAISE","zip":"74350"},{"name":"AUBERGE DE LA TOUR","city":"GIVET","zip":"08600"},{"name":"LES TOURELLES","city":"LE CROTOY","zip":"80550"},{"name":"AUBERGE DE LA RIVIERE","city":"VELLUIRE","zip":"85770"},{"name":"LE BEC FIGUE","city":"LABEAUME","zip":"07120"},{"name":"LE GOURMET","city":"BAPAUME","zip":"62450"},{"name":"HOTEL RIVABELLA","city":"OUISTREHAM","zip":"14150"},{"name":"LA TABLE DE LA FONTAINE","city":"AUTRANS MEAUDRE EN VERCORS","zip":"38112"},{"name":"LE CAP HORN","city":"CHAMONIX-MONT-BLANC","zip":"74400"},{"name":"RESTAURANT LA CABANE","city":"CHAMONIX-MONT-BLANC","zip":"74400"},{"name":"LA BELLE EPOQUE","city":"GIEN","zip":"45500"},{"name":"L'All�e des Vignes","city":"CAJARC","zip":"46160"},{"name":"LE FLEURY","city":"BEAUNE","zip":"21200"},{"name":"LES HOSPITALIERS","city":"LE POET LAVAL","zip":"26160"},{"name":"les 4 saisons","city":"BONN�TABLE","zip":"72110"},{"name":"AUBERGE BIENVENUE","city":"DOU�-LA-FONTAINE","zip":"49700"},{"name":"RESTAURANT LE CHABICHOU","city":"COURCHEVEL","zip":"73120"},{"name":"LE FERRIERE","city":"OZOIR-LA-FERRI�RE","zip":"77330"},{"name":"AU 52","city":"CROIX","zip":"59170"},{"name":"RESTAURANT AUX 3 ROSES","city":"EPFIG","zip":"67680"},{"name":"LES OLIVADES","city":"GAP","zip":"05000"},{"name":"A LA TABLE DU BON ROI STANISLAS","city":"NANCY","zip":"54000"},{"name":"RESTAURANT DE LA MER","city":"PIROU","zip":"50770"},{"name":"LA LOCO","city":"SAINT-�TIENNE","zip":"42000"},{"name":"LERICHE DE SAVEURS","city":"TOULOUSE","zip":"31000"},{"name":"LES BOISSIERES","city":"BIOULE","zip":"82800"},{"name":"SCEA CHATEAU CANTENAC","city":"SAINT-�MILION","zip":"33330"},{"name":"LE BORD D'EAU","city":"FRONSAC","zip":"33126"},{"name":"RESTAURANT DE LA COSMETIQUE","city":"MARSEILLE","zip":"13015"},{"name":"LE DESSIRIER","city":"PARIS","zip":"75017"},{"name":"RESTAURANT LA VILLA","city":"SAINT-JEAN-DE-MONTS","zip":"85160"},{"name":"earl du mas bleu ","city":"GIGNAC LA NERTHE","zip":"13180"},{"name":"AUX TROIS MARIES","city":"LYON","zip":"69005"},{"name":"LA COTRIADE","city":"PERROS-GUIREC","zip":"22700"},{"name":"PLAGE ONDINE","city":"CANNES","zip":"06400"},{"name":"RESTAURANT EMILIE ET THOMAS","city":"RODEZ","zip":"12000"},{"name":"H�TEL-RESTAURANT LA TOUR","city":"DUNI�RES","zip":"43220"},{"name":"L'ETAPE","city":"SAINT-FLOUR","zip":"15100"},{"name":"SAS BELLEVUE","city":"VILLERVILLE","zip":"14113"},{"name":"TOTUM - CANTINE BIO","city":"NANTES","zip":"44000"},{"name":"LE CANTAREL","city":"ANDELOT","zip":"52700"},{"name":"LE CEDRE","city":"GRENOBLE","zip":"38000"},{"name":"LE CLOS DE VALLOMBREUSE","city":"DOUARNENEZ","zip":"29100"},{"name":"CHEZ JULES","city":"CHALON-SUR-SA�NE","zip":"71100"},{"name":"LA VIEILLE TOUR","city":"S�LESTAT","zip":"67600"},{"name":"AUBERGE DU BOENLESGRAB","city":"WASSERBOURG","zip":"68230"},{"name":"LA MANGEOIRE","city":"LA PLAGNE","zip":"73210"},{"name":"LES 3 LIEUX","city":"LES PONTS-DE-C�","zip":"49130"},{"name":"SOLEIL ET JARDIN","city":"SOLAIZE","zip":"69360"},{"name":"L'AROMATIC","city":"PLOEUC LHERMITAGE","zip":"22150"},{"name":"CH�TEAU DES TOURELLES","city":"PORNICHET","zip":"44380"},{"name":"L'O A LA BOUCHE","city":"MARMANDE","zip":"47200"},{"name":"LA GRANGE","city":"MARMANDE","zip":"47200"},{"name":"LA TOQUE ROSE","city":"MALAFRETAZ","zip":"01340"},{"name":"AUBERGE DE L'ATRE","city":"QUARR�-LES-TOMBES","zip":"89630"},{"name":"AUBERGE DE VIENNE","city":"VIENNE-EN-VAL","zip":"45510"},{"name":"LES FINES GUEULES","city":"LYON","zip":"69005"},{"name":"LE CARR� D'ALETHIUS","city":"CHARMES-SUR-RH�NE","zip":"07800"},{"name":"LE GRIGNOT","city":"LE HAVRE","zip":"76600"},{"name":"BISTROT DE LA GARE","city":"CHOLET","zip":"49300"},{"name":"RESTAURANT SKAB","city":"N�MES","zip":"30000"},{"name":"EN CATIMINI","city":"FERRALS-LES-CORBI�RES","zip":"11200"},{"name":"LA TRUFFE DANS TOUS SES ETATS","city":"BOUC-BEL-AIR","zip":"13320"},{"name":"L'ATELIER DES SAVEURS","city":"NOEUX-LES-MINES","zip":"62290"},{"name":"LE SARDAIGNE","city":"�PERNAY","zip":"51200"},{"name":"MICHEL SARRAN","city":"TOULOUSE","zip":"31000"},{"name":"RESTAURANT LA TOUR GALANTE","city":"SAULT-DE-NAVAILLES","zip":"64300"},{"name":"AU BOIS LE SIRE","city":"ORBEY","zip":"68370"},{"name":"hotel restaurant Le Sorbier","city":"RAZAC-SUR-L'ISLE","zip":"24430"},{"name":"VERTE CAMPAGNE","city":"LACROIX-FALGARDE","zip":"31120"},{"name":"Domaine Moka","city":"SAINTE MARIE","zip":"97438"},{"name":"BRASSERIE L'ANICIEN","city":"LE PUY-EN-VELAY","zip":"43000"},{"name":"MILL�SIMES 62","city":"PARIS","zip":"75014"},{"name":"LE RESTO DU COIN","city":"STRASBOURG","zip":"67100"},{"name":"RESTAURANT AR INIZ","city":"SAINT-MALO","zip":"35400"},{"name":"AU SOLEIL","city":"WETTOLSHEIM","zip":"68920"},{"name":"TAVERNE KATZ","city":"SAVERNE","zip":"67700"},{"name":"GRAINS DE SEL","city":"HAGUENAU","zip":"67500"},{"name":"BAR DU BOUCHER","city":"BORDEAUX","zip":"33000"},{"name":"Sarl Brasserie du vignoble","city":"RIQUEWIHR","zip":"68340"},{"name":"COUR DES LOGES","city":"LYON","zip":"69005"},{"name":"LE RELAIS DE LA PASTORALE","city":"MALEVILLE","zip":"12350"},{"name":"DOMEVA CAFFE","city":"LYON","zip":"69009"},{"name":"LA FORGE","city":"CARROS","zip":"06510"},{"name":"HOTEL DE LA PROVIDENCE","city":"BESSE ET STE ANASTAISE","zip":"63610"},{"name":"L'AMBROISIE","city":"VENCE","zip":"06140"},{"name":"L'ENTRECOTE","city":"LYON","zip":"69001"},{"name":"LE FER A CHEVAL","city":"ROUBAIX","zip":"59100"},{"name":"LA GRANGE AUX MARMOTTES","city":"VISCOS","zip":"65120"},{"name":"L'�..Berge du Canal","city":"VILLENEUVE LES BEZIERS","zip":"34420"},{"name":"BISTROT BERTHET","city":"LYON","zip":"69009"},{"name":"l'ile restaurant","city":"SOLAIZE","zip":"69360"},{"name":"L'ATELIER DU MO�TIER","city":"BRIVE-LA-GAILLARDE","zip":"19100"},{"name":"LA BRIGANTINE","city":"CARNAC PLAGE","zip":"56340"},{"name":"L'AMANDINE","city":"L'�TRAT","zip":"42580"},{"name":"TIR NA NOG","city":"LILLE","zip":"59000"},{"name":"MARIUS","city":"PORNIC","zip":"44210"},{"name":"MONTE D'ORO","city":"VIVARIO","zip":"20219"},{"name":"PAULE ET KOPA","city":"MARSEILLE","zip":"13001"},{"name":"LE BOUCHE � OREILLE","city":"CABOURG","zip":"14390"},{"name":"Le Martini","city":"LYON","zip":"69006"},{"name":"BALTARD AU LOUVRE","city":"PARIS","zip":"75001"},{"name":"GANDHI","city":"SAINT-TROPEZ","zip":"83990"},{"name":"LA TOILE","city":"AUBI�RE","zip":"63170"},{"name":"LES MARRONNIERS","city":"THUEYTS","zip":"07330"},{"name":"FREY-SOHLER","city":"SCHERWILLER","zip":"67750"},{"name":"LE SABLIER DU TEMPS","city":"ARGENTAT","zip":"19400"},{"name":"Goood","city":"ANTIBES","zip":"06600"},{"name":"AUBERGE DES MATFEUX�","city":"ARNAGE","zip":"72230"},{"name":"AU FIL DES SAISON","city":"LU�ON","zip":"85400"},{"name":"COMPTOIR DU MARCHE","city":"JONZAC","zip":"17500"},{"name":"Les 5 bouchons","city":"MONTAUBAN","zip":"82000"},{"name":"RESTAURANT SOUPLY","city":"CHALON EN CHAMPAGNE","zip":"51000"},{"name":"LE PLAN B","city":"LYON","zip":"69006"},{"name":"HOTEL ASTER- LES ARCADES","city":"BRIEY","zip":"54150"},{"name":"L'AUBERGE DE LA FORGE","city":"VILLENEUVE D'ASCQ","zip":"59650"},{"name":"L'INSTANT GOURMET","city":"OEYRELUY","zip":"40180"},{"name":"LE VIEUX LOGIS","city":"GU�RANDE","zip":"44350"},{"name":"LES TANNEURS","city":"COMMERCY","zip":"55200"},{"name":"CLOS DES SOURCES","city":"THANNENKIRCH","zip":"68590"},{"name":"BISTROT COLETTE","city":"BOURGOIN-JALLIEU","zip":"38300"},{"name":"BISTROT COLETTE THE VILLAGE","city":"VILLEFONTAINE","zip":"38090"},{"name":"AUBERGE DU P�RE BISE","city":"TALLOIRES","zip":"74290"},{"name":"LE BISTROT GOURMAND","city":"�PINAL","zip":"88000"},{"name":"LE PETIT COMPTOIR","city":"LUN�VILLE","zip":"54300"},{"name":"LE BONAPARTE","city":"PARIS","zip":"75006"},{"name":"LA VALLEE","city":"DINARD","zip":"35800"},{"name":"Restaurant l'Observatoire","city":"MONNETIER-MORNEX","zip":"74560"},{"name":"CAFE VERANDA","city":"M�NERBES","zip":"84560"},{"name":"AUBERGE DU MOULIN","city":"SAINT-SORLIN-EN-VALLOIRE","zip":"26210"},{"name":"le jardin de Tienou","city":"PIERRELATTE","zip":"26700"},{"name":"O PAILLE EN QUEUE","city":"SAINT-LAURENT-DE-MURE","zip":"69720"},{"name":"H�TEL DE FRANCE","city":"ANGERVILLE","zip":"91670"},{"name":"LA TABLE DU MEUNIER","city":"CHENILL�-CHAMPTEUSSE","zip":"49220"},{"name":"LA MANGEOIRE","city":"MILLAU","zip":"12100"},{"name":"LA TABLE DES SAISONS","city":"ANDUZE","zip":"30140"},{"name":"L'ATABLE","city":"LA ROCHE-SUR-YON","zip":"85000"},{"name":"L'ESCARGOT","city":"VALENCIENNES","zip":"59300"},{"name":"LE PAVILLON DE BAILLY","city":"BAILLY","zip":"78870"},{"name":"LA CLOSERIE DES ROSES","city":"LOIREAUXENCE","zip":"44370"},{"name":"LA BISQUINE","city":"NOIRMOUTIER-EN-L'�LE","zip":"85330"},{"name":"LE CH�TEAU DES ILES","city":"LA VARENNE SAINT-HILAIRE","zip":"94210"},{"name":"LA TABLE DE L'HOSTELLERIE","city":"SEMUR-EN-AUXOIS","zip":"21140"},{"name":"LE RELAIS VOSGIEN","city":"SAINT-PIERREMONT","zip":"88700"},{"name":"LE PLATO","city":"LYON","zip":"69004"},{"name":"THIEULOY Mireille","city":"FONTVIEILLE","zip":"13990"},{"name":"L'ATALANTE","city":"SAINTE-MARIE-DE-R�","zip":"17440"},{"name":"LE SENECHAL","city":"SCRIGNAC","zip":"29640"},{"name":"la table des �coliers","city":"STAPLE","zip":"59190"},{"name":"LA CHAMADE","city":"MORZINE","zip":"74110"},{"name":"CH�TEAU DES MONTHAIRONS","city":"LES MONTHAIRONS","zip":"55320"},{"name":"CHEZ PIERRE","city":"BLODELSHEIM","zip":"68740"},{"name":"LES BERGERIES DE PALOMBAGGIA","city":"PORTO-VECCHIO","zip":"20137"},{"name":"EARL Saveurs Capcir Fenouill�des","city":"SOURNIA","zip":"66730"},{"name":"LES TROIS MAURES","city":"COUCHES","zip":"71490"},{"name":"RESTAURANT DU COMMERCE","city":"ESTANG","zip":"32240"},{"name":"TIGER'S HOUSE","city":"MIRAMAS","zip":"13140"},{"name":"LA CAVE BISTROT ET RESTAURANT","city":"SAINT LOUIS","zip":"68300"},{"name":"BISTROT DE L'OULETTE","city":"PARIS","zip":"75004"},{"name":"SARL Domaine de CosteChaude","city":"VISAN","zip":"84820"},{"name":"CAP O SAVEURS - IBIS","city":"CESSON-S�VIGN�","zip":"35510"},{"name":"LES GENTIANETTES","city":"LA CHAPELLE-D'ABONDANCE","zip":"74360"},{"name":"RESTAURANT LE JOLLA","city":"MARGENCEL","zip":"74200"},{"name":"L'AMARETTE","city":"LE GRAU-DU-ROI","zip":"30240"},{"name":"FLEUR DE NEIGE","city":"CH�TEL","zip":"74390"},{"name":"RESTAURANT DELICATESSEN","city":"CAVALAIRE-SUR-MER","zip":"83240"},{"name":"LES CAUDALIES","city":"ARBOIS","zip":"39600"},{"name":"LE PUITS FLEURI","city":"LES BEAUMETTES","zip":"84220"},{"name":"LA MAR�E","city":"PARIS","zip":"75008"},{"name":"LA TOQUE D'OR","city":"CANNES","zip":"06400"},{"name":"L'HIPPOCAMPE","city":"MARSEILLE","zip":"13002"},{"name":"LE TROPICANA","city":"DOUVILLE","zip":"24140"},{"name":"FARNIENTE RESTAURANT","city":"SAINTES-MARIES-DE-LA-MER","zip":"13460"},{"name":"RESTAURANT MADO","city":"LE CROTOY","zip":"80550"},{"name":"L'ARDOISE","city":"SAINT-M�EN-LE-GRAND","zip":"35290"},{"name":"LE BEL'VUE","city":"LE CERGNE","zip":"42460"},{"name":"L'ENVUE","city":"PARIS","zip":"75008"},{"name":"CLAIR DE LA PLUME","city":"GRIGNAN","zip":"26230"},{"name":"LE GRAND HOTEL","city":"CH�TEAU-DU-LOIR","zip":"72500"},{"name":"RESTAURANT LE BRANTOME","city":"POINTE A PITRE","zip":"97110"},{"name":"COCO KAFE L'AQUARIUM","city":"LE GOSIER","zip":"97190"},{"name":"LE BISTRO DU CH�TEAU","city":"LA TOUR-DE-SALVAGNY","zip":"69890"},{"name":"LA CANOP�E","city":"M�RIGNIES","zip":"59710"},{"name":"MAYSSA","city":"VILLEFRANCHE-SUR-MER","zip":"06230"},{"name":"L'ECUME GOURMANDE","city":"CERCI�","zip":"69220"},{"name":"SCEA Domaine de l'Argenteille","city":"SAINT F�LIX DE LODEZ","zip":"34725"},{"name":"VILLA SAINT ANTOINE","city":"CLISSON","zip":"44190"},{"name":"LA POISSONNERIE DU CAP","city":"LE CAP D'AGDE","zip":"34300"},{"name":"RISTORANTE VAUDAGNA","city":"P�GOMAS","zip":"06580"},{"name":"DOMAINE DE LA TUILERIE","city":"NIORT BESSINES","zip":"79000"},{"name":"LE RELAIS DE SILLERY","city":"SILLERY","zip":"51500"},{"name":"LE LION D'OR","city":"LA PETITE-PIERRE","zip":"67290"},{"name":"AUBERGE DU COCHON D'OR","city":"BEUZEVILLE","zip":"27210"},{"name":"LE CRISTAL","city":"B�ZIERS","zip":"34500"},{"name":"PETIT COURAULT","city":"PAMPROUX","zip":"79800"},{"name":"DON CAMILO","city":"PARIS","zip":"75007"},{"name":"AU HASARD BALTHAZAR","city":"MARTEL","zip":"46600"},{"name":"Distillerie Louis Couderc","city":"AURILLAC","zip":"15000"},{"name":"BEAUS�JOUR","city":"LE BEAGE","zip":"07630"},{"name":"LE BISTROT DU PORT","city":"AIX-LES-BAINS","zip":"73100"},{"name":"LE GOYEN","city":"AUDIERNE","zip":"29770"},{"name":"LA COUR VERTE","city":"DOL-DE-BRETAGNE","zip":"35120"},{"name":"RESTAURANT L'ID","city":"LINGOLSHIEM","zip":"67380"},{"name":"RESTAURANT DE LA POSTE","city":"TENCE","zip":"43190"},{"name":"LE BEAULIEU","city":"CHARBONNIERS LES BAINS","zip":"69260"},{"name":"LE BOUCHE � OREILLE","city":"NANCY","zip":"54000"},{"name":"BISTROT FIRMIN LE BARBIER","city":"PARIS","zip":"75007"},{"name":"BRATSCHTALL MANALA","city":"KAYSERSBERG","zip":"68240"},{"name":"RESTAURANT VIDAL","city":"SAINT-JULIEN-CHAPTEUIL","zip":"43260"},{"name":"LE SULLY","city":"PARIS","zip":"75004"},{"name":"MOULIN ROUGE","city":"PARIS","zip":"75018"},{"name":"LE MONTAUBAN","city":"BRIVE-LA-GAILLARDE","zip":"19100"},{"name":"LE GOELAND","city":"LE PALAIS","zip":"56360"},{"name":"LE SAVOIE","city":"MARGAUX","zip":"33460"},{"name":"L'�CUME","city":"SAINT-TROJAN-LES-BAINS","zip":"17370"},{"name":"LA TABLE DU PATISSIER","city":"KAYSERSBERG","zip":"68240"},{"name":"LE CHOKA BLEU","city":"LA SALINE LES BAINS","zip":"97434"},{"name":"VILLA SAINTE ANNE","city":"ILE DE PORQUEROLLES","zip":"83400"},{"name":"DOMAINE LA GRANGE DE COND�","city":"COND�-NORTHEN","zip":"57220"},{"name":"AFRICAN QUEEN","city":"BEAULIEU-SUR-MER","zip":"06310"},{"name":"LES TERRASSES DE CLAIREFONTAINE","city":"CLAIREFONTAINE-EN-YVELINES","zip":"78120"},{"name":"LES NYMPHEAS","city":"SAINT-THIBAULT-DES-VIGNES","zip":"77400"},{"name":"TOUCH IN PARIS","city":"PARIS","zip":"75009"},{"name":"LE RETRO","city":"VITTEL","zip":"88800"},{"name":"L'AUBERGE BRESSANE","city":"BOURG-EN-BRESSE","zip":"01000"},{"name":"Au Vrai Normand Vire","city":"VIR�","zip":"14500"},{"name":"LES GIRELLES","city":"SAUSSET-LES-PINS","zip":"13960"},{"name":"lum la table","city":"VAISON-LA-ROMAINE","zip":"84110"},{"name":"LE COQ ROUGE","city":"SAINT-GENIS-POUILLY","zip":"01630"},{"name":"Netanswer","city":"PARIS","zip":"75002"},{"name":"RESTAURANT DU PARC","city":"OBERNAI","zip":"67210"},{"name":"LA TABLE DE FRED","city":"ISSENHEIM","zip":"68500"},{"name":"BELLE ISLE SUR RISLE","city":"PONT-AUDEMER","zip":"27500"},{"name":"LE MOULIN DE CHALONS","city":"LE GUA","zip":"17600"},{"name":"PIZZERIA RABAH ZAOUI","city":"CARCASSONNE","zip":"11000"},{"name":"CULINA HORTUS","city":"LYON","zip":"69001"},{"name":"CH�TEAU DE FINES ROCHES","city":"CH�TEAUNEUF-DU-PAPE","zip":"84230"},{"name":"LE CLOS","city":"GAP","zip":"05000"}]